{
  "type": "FeatureCollection",
  "generator": "overpass-turbo",
  "copyright": "The data included in this document is from www.openstreetmap.org. The data is made available under ODbL.",
  "timestamp": "2025-12-12T16:37:11Z",
  "features": [
    {
      "type": "Feature",
      "properties": {
        "@id": "way/112888214",
        "addr:housenumber": "15/A",
        "addr:street": "Refik Saydam Cd",
        "amenity": "bar",
        "building": "yes",
        "name": "Mürekkep",
        "name:ar": "بار ميركب",
        "source": "Bing"
      },
      "geometry": {
        "type": "Polygon",
        "coordinates": [
          [
            [
              28.9723496,
              41.0304372
            ],
            [
              28.9721873,
              41.0301773
            ],
            [
              28.9723093,
              41.0301339
            ],
            [
              28.9724717,
              41.0303938
            ],
            [
              28.9723496,
              41.0304372
            ]
          ]
        ]
      },
      "id": "way/112888214"
    },
    {
      "type": "Feature",
      "properties": {
        "@id": "way/237057020",
        "addr:city": "İstanbul",
        "addr:country": "TR",
        "addr:district": "Kadıköy",
        "addr:housenumber": "12",
        "addr:postcode": "34710",
        "addr:street": "Kadife Sokağı",
        "amenity": "bar",
        "building": "yes",
        "name": "Barmy",
        "wheelchair": "no"
      },
      "geometry": {
        "type": "Polygon",
        "coordinates": [
          [
            [
              29.0264405,
              40.9867797
            ],
            [
              29.0264774,
              40.9867689
            ],
            [
              29.0266552,
              40.9867165
            ],
            [
              29.0266816,
              40.9867678
            ],
            [
              29.0266105,
              40.9867888
            ],
            [
              29.0265059,
              40.9868197
            ],
            [
              29.026467,
              40.9868311
            ],
            [
              29.0264405,
              40.9867797
            ]
          ]
        ]
      },
      "id": "way/237057020"
    },
    {
      "type": "Feature",
      "properties": {
        "@id": "way/237302190",
        "amenity": "bar",
        "building": "yes",
        "name": "Murphy's Dance Bar"
      },
      "geometry": {
        "type": "Polygon",
        "coordinates": [
          [
            [
              29.0379628,
              40.9760257
            ],
            [
              29.0380293,
              40.9758395
            ],
            [
              29.0382854,
              40.9758895
            ],
            [
              29.0382516,
              40.9759876
            ],
            [
              29.0382201,
              40.9760777
            ],
            [
              29.0379628,
              40.9760257
            ]
          ]
        ]
      },
      "id": "way/237302190"
    },
    {
      "type": "Feature",
      "properties": {
        "@id": "way/287308590",
        "addr:city": "İstanbul",
        "addr:housenumber": "44",
        "addr:postcode": "34433",
        "addr:street": "Yeni Çarşı Caddesi",
        "air_conditioning": "yes",
        "amenity": "bar",
        "bar": "yes",
        "building": "yes",
        "check_date": "2024-08-12",
        "craft": "winery",
        "cuisine": "bar",
        "diet:vegetarian": "yes",
        "indoor_seating": "yes",
        "internet_access": "yes",
        "name": "Solera Winery",
        "opening_hours": "11:00-02:00",
        "outdoor_seating": "yes",
        "phone": "02122522719",
        "smoking": "outside",
        "toilets": "yes"
      },
      "geometry": {
        "type": "Polygon",
        "coordinates": [
          [
            [
              28.9782367,
              41.0320545
            ],
            [
              28.9781449,
              41.0320264
            ],
            [
              28.9781576,
              41.0320019
            ],
            [
              28.9781643,
              41.0319968
            ],
            [
              28.9782582,
              41.0320241
            ],
            [
              28.9782367,
              41.0320545
            ]
          ]
        ]
      },
      "id": "way/287308590"
    },
    {
      "type": "Feature",
      "properties": {
        "@id": "way/436557218",
        "amenity": "bar",
        "building": "yes",
        "name": "TEB Saklıköy Pool Bar"
      },
      "geometry": {
        "type": "Polygon",
        "coordinates": [
          [
            [
              29.2959332,
              41.1345126
            ],
            [
              29.2959651,
              41.1344808
            ],
            [
              29.2959905,
              41.1344555
            ],
            [
              29.2963239,
              41.1346456
            ],
            [
              29.2962955,
              41.1346739
            ],
            [
              29.2962665,
              41.1347027
            ],
            [
              29.2959332,
              41.1345126
            ]
          ]
        ]
      },
      "id": "way/436557218"
    },
    {
      "type": "Feature",
      "properties": {
        "@id": "way/582224057",
        "amenity": "bar",
        "building": "no",
        "name": "Beach Bar",
        "operator": "Burch Beach"
      },
      "geometry": {
        "type": "Polygon",
        "coordinates": [
          [
            [
              29.0077803,
              41.2461374
            ],
            [
              29.0074387,
              41.2454398
            ],
            [
              29.0078556,
              41.2452984
            ],
            [
              29.009219,
              41.2456873
            ],
            [
              29.0091814,
              41.2459159
            ],
            [
              29.0077803,
              41.2461374
            ]
          ]
        ]
      },
      "id": "way/582224057"
    },
    {
      "type": "Feature",
      "properties": {
        "@id": "way/866006841",
        "amenity": "bar",
        "building": "yes",
        "name": "The United Pub"
      },
      "geometry": {
        "type": "Polygon",
        "coordinates": [
          [
            [
              29.0044359,
              41.0440272
            ],
            [
              29.004413,
              41.0439781
            ],
            [
              29.0044813,
              41.043951
            ],
            [
              29.0045114,
              41.043997
            ],
            [
              29.0044359,
              41.0440272
            ]
          ]
        ]
      },
      "id": "way/866006841"
    },
    {
      "type": "Feature",
      "properties": {
        "@id": "way/866786275",
        "amenity": "bar",
        "building": "yes"
      },
      "geometry": {
        "type": "Polygon",
        "coordinates": [
          [
            [
              29.1113708,
              40.9870024
            ],
            [
              29.1114876,
              40.9868901
            ],
            [
              29.1117133,
              40.9870496
            ],
            [
              29.1116477,
              40.9871051
            ],
            [
              29.1114748,
              40.987081
            ],
            [
              29.1113708,
              40.9870024
            ]
          ]
        ]
      },
      "id": "way/866786275"
    },
    {
      "type": "Feature",
      "properties": {
        "@id": "way/878622676",
        "amenity": "bar",
        "building": "yes",
        "name": "Thales"
      },
      "geometry": {
        "type": "Polygon",
        "coordinates": [
          [
            [
              29.0056751,
              41.0437439
            ],
            [
              29.005629,
              41.0436985
            ],
            [
              29.005726,
              41.0436537
            ],
            [
              29.0057572,
              41.0436388
            ],
            [
              29.0057966,
              41.0436829
            ],
            [
              29.0056751,
              41.0437439
            ]
          ]
        ]
      },
      "id": "way/878622676"
    },
    {
      "type": "Feature",
      "properties": {
        "@id": "way/878622677",
        "amenity": "bar",
        "building": "yes",
        "name": "EpopE"
      },
      "geometry": {
        "type": "Polygon",
        "coordinates": [
          [
            [
              29.005726,
              41.0436537
            ],
            [
              29.005629,
              41.0436985
            ],
            [
              29.0056188,
              41.0437026
            ],
            [
              29.0056011,
              41.0436759
            ],
            [
              29.0055818,
              41.043559
            ],
            [
              29.0056607,
              41.0435626
            ],
            [
              29.005726,
              41.0436537
            ]
          ]
        ]
      },
      "id": "way/878622677"
    },
    {
      "type": "Feature",
      "properties": {
        "@id": "way/879030927",
        "amenity": "bar",
        "building": "yes",
        "name": "Ahtapot"
      },
      "geometry": {
        "type": "Polygon",
        "coordinates": [
          [
            [
              29.0051345,
              41.0437571
            ],
            [
              29.0050383,
              41.0438313
            ],
            [
              29.004903,
              41.0437315
            ],
            [
              29.0049993,
              41.0436573
            ],
            [
              29.0050347,
              41.0436834
            ],
            [
              29.0051345,
              41.0437571
            ]
          ]
        ]
      },
      "id": "way/879030927"
    },
    {
      "type": "Feature",
      "properties": {
        "@id": "way/879030929",
        "amenity": "bar",
        "building": "yes",
        "name": "Black Corner"
      },
      "geometry": {
        "type": "Polygon",
        "coordinates": [
          [
            [
              29.0055565,
              41.0435933
            ],
            [
              29.0054646,
              41.0435914
            ],
            [
              29.0054567,
              41.04355
            ],
            [
              29.0055353,
              41.0435511
            ],
            [
              29.0055498,
              41.0435656
            ],
            [
              29.0055565,
              41.0435933
            ]
          ]
        ]
      },
      "id": "way/879030929"
    },
    {
      "type": "Feature",
      "properties": {
        "@id": "node/656104690",
        "addr:street": "Kartal Sokak 6/A, Istanbul",
        "amenity": "bar",
        "internet_access": "wlan",
        "name": "Urban Cafe",
        "name:ar": "إيربان",
        "website": "https://www.urbanbeyoglu.com/"
      },
      "geometry": {
        "type": "Point",
        "coordinates": [
          28.9785641,
          41.0336104
        ]
      },
      "id": "node/656104690"
    },
    {
      "type": "Feature",
      "properties": {
        "@id": "node/656108764",
        "addr:street": "General Yazgan Sokak No: 5 Tünel",
        "amenity": "bar",
        "name": "Badehane",
        "name:ar": "بادي هاني"
      },
      "geometry": {
        "type": "Point",
        "coordinates": [
          28.9742171,
          41.0287835
        ]
      },
      "id": "node/656108764"
    },
    {
      "type": "Feature",
      "properties": {
        "@id": "node/1000033444",
        "addr:city": "İstanbul",
        "addr:district": "Beyoğlu",
        "addr:housenumber": "163b",
        "addr:street": "İstiklal Caddesi",
        "amenity": "bar",
        "brewery": "yes",
        "level": "8",
        "name": "360 Istanbul",
        "name:ar": "اسطنبول 360",
        "outdoor_seating": "yes",
        "phone": "+90 533 691 0 360",
        "smoking": "outside",
        "website": "http://360istanbul.com/"
      },
      "geometry": {
        "type": "Point",
        "coordinates": [
          28.9767231,
          41.032744
        ]
      },
      "id": "node/1000033444"
    },
    {
      "type": "Feature",
      "properties": {
        "@id": "node/1657788203",
        "amenity": "bar",
        "name": "Roxy Bar",
        "name:ar": "بار روكسي",
        "website": "https://roxy.com.tr"
      },
      "geometry": {
        "type": "Point",
        "coordinates": [
          28.9845243,
          41.0336163
        ]
      },
      "id": "node/1657788203"
    },
    {
      "type": "Feature",
      "properties": {
        "@id": "node/1905820222",
        "amenity": "bar",
        "created_by": "iLOE 1.9",
        "name": "Kino Garden"
      },
      "geometry": {
        "type": "Point",
        "coordinates": [
          28.974339,
          41.030045
        ]
      },
      "id": "node/1905820222"
    },
    {
      "type": "Feature",
      "properties": {
        "@id": "node/1905854637",
        "amenity": "bar",
        "name": "Sensus Wine Boutique",
        "wheelchair": "no"
      },
      "geometry": {
        "type": "Point",
        "coordinates": [
          28.973884,
          41.025676
        ]
      },
      "id": "node/1905854637"
    },
    {
      "type": "Feature",
      "properties": {
        "@id": "node/1912249076",
        "amenity": "bar",
        "name": "Montreal"
      },
      "geometry": {
        "type": "Point",
        "coordinates": [
          28.97494,
          41.029754
        ]
      },
      "id": "node/1912249076"
    },
    {
      "type": "Feature",
      "properties": {
        "@id": "node/1915390146",
        "amenity": "bar",
        "fixme": "verify",
        "name": "Beer House"
      },
      "geometry": {
        "type": "Point",
        "coordinates": [
          28.9783535,
          41.0347427
        ]
      },
      "id": "node/1915390146"
    },
    {
      "type": "Feature",
      "properties": {
        "@id": "node/1915390148",
        "amenity": "bar",
        "fixme": "verify",
        "name": "Club Zarife"
      },
      "geometry": {
        "type": "Point",
        "coordinates": [
          28.9784114,
          41.0346224
        ]
      },
      "id": "node/1915390148"
    },
    {
      "type": "Feature",
      "properties": {
        "@id": "node/1921444719",
        "amenity": "bar",
        "internet_access": "wlan"
      },
      "geometry": {
        "type": "Point",
        "coordinates": [
          29.0383269,
          41.0114442
        ]
      },
      "id": "node/1921444719"
    },
    {
      "type": "Feature",
      "properties": {
        "@id": "node/2246663141",
        "addr:housenumber": "28",
        "addr:street": "Cankurtaran Mh.",
        "amenity": "bar",
        "name": "Just Bar",
        "source": "+90 535 312 14 92"
      },
      "geometry": {
        "type": "Point",
        "coordinates": [
          28.9808966,
          41.0059332
        ]
      },
      "id": "node/2246663141"
    },
    {
      "type": "Feature",
      "properties": {
        "@id": "node/2246682577",
        "addr:housename": "Dedeman Hotel",
        "addr:housenumber": "50",
        "addr:street": "Yıldız Posta Caddesi",
        "amenity": "bar",
        "name": "Dedeman Roof Bar",
        "phone": "+90 212 337 45 00",
        "website": "http://www.facebook.com/pages/Roof-Bar-Dedeman-Hotel-Istanbul/134930766602024"
      },
      "geometry": {
        "type": "Point",
        "coordinates": [
          29.0101244,
          41.0640446
        ]
      },
      "id": "node/2246682577"
    },
    {
      "type": "Feature",
      "properties": {
        "@id": "node/2433366996",
        "amenity": "bar",
        "name": "Fil"
      },
      "geometry": {
        "type": "Point",
        "coordinates": [
          29.0277667,
          40.9872396
        ]
      },
      "id": "node/2433366996"
    },
    {
      "type": "Feature",
      "properties": {
        "@id": "node/2433671835",
        "addr:city": "Istanbul",
        "addr:district": "Kadıköy",
        "addr:housenumber": "18",
        "addr:neighbourhood": "Kadıköy",
        "addr:postcode": "34710",
        "addr:street": "Kadife Sokak",
        "amenity": "bar",
        "name": "Arkaoda"
      },
      "geometry": {
        "type": "Point",
        "coordinates": [
          29.0265392,
          40.98659
        ]
      },
      "id": "node/2433671835"
    },
    {
      "type": "Feature",
      "properties": {
        "@id": "node/2450051798",
        "amenity": "bar",
        "check_date": "2024-11-01",
        "name": "Kadife"
      },
      "geometry": {
        "type": "Point",
        "coordinates": [
          29.0268261,
          40.9872032
        ]
      },
      "id": "node/2450051798"
    },
    {
      "type": "Feature",
      "properties": {
        "@id": "node/2507841548",
        "addr:housenumber": "6",
        "addr:street": "Korsan Çıkmazı",
        "amenity": "bar",
        "name": "Kasette",
        "opening_hours": "Mo-Su 22:00-04:00"
      },
      "geometry": {
        "type": "Point",
        "coordinates": [
          28.975625,
          41.0313349
        ]
      },
      "id": "node/2507841548"
    },
    {
      "type": "Feature",
      "properties": {
        "@id": "node/2509010552",
        "addr:housenumber": "5/1",
        "addr:street": "Şehbender Sokak",
        "amenity": "bar",
        "name": "Kücük",
        "opening_hours": "Mo-SA 22:00-02:00"
      },
      "geometry": {
        "type": "Point",
        "coordinates": [
          28.9738011,
          41.02987
        ]
      },
      "id": "node/2509010552"
    },
    {
      "type": "Feature",
      "properties": {
        "@id": "node/2773225811",
        "amenity": "bar",
        "name": "Taps Bebek"
      },
      "geometry": {
        "type": "Point",
        "coordinates": [
          29.0507353,
          41.0800877
        ]
      },
      "id": "node/2773225811"
    },
    {
      "type": "Feature",
      "properties": {
        "@id": "node/2901379804",
        "addr:housenumber": "4a",
        "addr:street": "Karaali Kaptan Sokak",
        "amenity": "bar",
        "fixme": "resurvey",
        "name": "Unter"
      },
      "geometry": {
        "type": "Point",
        "coordinates": [
          28.9789344,
          41.0254323
        ]
      },
      "id": "node/2901379804"
    },
    {
      "type": "Feature",
      "properties": {
        "@id": "node/2901761815",
        "amenity": "bar",
        "name": "gaspar"
      },
      "geometry": {
        "type": "Point",
        "coordinates": [
          28.9774073,
          41.0249705
        ]
      },
      "id": "node/2901761815"
    },
    {
      "type": "Feature",
      "properties": {
        "@id": "node/2901761818",
        "amenity": "bar",
        "check_date": "2023-11-30",
        "name": "Finn"
      },
      "geometry": {
        "type": "Point",
        "coordinates": [
          28.9775293,
          41.0248906
        ]
      },
      "id": "node/2901761818"
    },
    {
      "type": "Feature",
      "properties": {
        "@id": "node/2938604202",
        "addr:city": "İstanbul",
        "addr:district": "Sarıyer",
        "addr:housenumber": "51/A",
        "addr:neighbourhood": "Bebek",
        "addr:street": "Cevdetpaşa Caddesi",
        "amenity": "bar",
        "internet_access": "yes",
        "internet_access:fee": "customers",
        "name": "Lucca",
        "opening_hours": "Mo-Su 10:00-02:00",
        "outdoor_seating": "yes",
        "payment:cash": "yes",
        "payment:credit_cards": "yes",
        "phone": "0212 257 12 55",
        "website": "https://luccastyle.com/"
      },
      "geometry": {
        "type": "Point",
        "coordinates": [
          29.0432638,
          41.0773541
        ]
      },
      "id": "node/2938604202"
    },
    {
      "type": "Feature",
      "properties": {
        "@id": "node/3194754957",
        "amenity": "bar",
        "check_date": "2023-12-01",
        "name": "Orient Bar",
        "note": "Old fashioned bar in the Pera Palace Hotel. E.g. try a Ian Fleming special served in an icecold silver teapot.",
        "smoking": "no",
        "wheelchair": "limited"
      },
      "geometry": {
        "type": "Point",
        "coordinates": [
          28.9736493,
          41.031135
        ]
      },
      "id": "node/3194754957"
    },
    {
      "type": "Feature",
      "properties": {
        "@id": "node/3772791276",
        "addr:city": "İstanbul",
        "addr:housenumber": "5",
        "addr:street": "Selamlık Caddesi",
        "amenity": "bar",
        "cuisine": "international",
        "name": "Kaset",
        "phone": "+90 212 227 33 69"
      },
      "geometry": {
        "type": "Point",
        "coordinates": [
          29.0059933,
          41.0441911
        ]
      },
      "id": "node/3772791276"
    },
    {
      "type": "Feature",
      "properties": {
        "@id": "node/3877213315",
        "amenity": "bar",
        "name": "Akbaba"
      },
      "geometry": {
        "type": "Point",
        "coordinates": [
          28.9737984,
          41.0287828
        ]
      },
      "id": "node/3877213315"
    },
    {
      "type": "Feature",
      "properties": {
        "@id": "node/3877233284",
        "amenity": "bar",
        "name": "Welldone"
      },
      "geometry": {
        "type": "Point",
        "coordinates": [
          28.9740564,
          41.028579
        ]
      },
      "id": "node/3877233284"
    },
    {
      "type": "Feature",
      "properties": {
        "@id": "node/3877233631",
        "amenity": "bar",
        "name": "Otto"
      },
      "geometry": {
        "type": "Point",
        "coordinates": [
          28.974152,
          41.0291004
        ]
      },
      "id": "node/3877233631"
    },
    {
      "type": "Feature",
      "properties": {
        "@id": "node/3877233632",
        "amenity": "bar",
        "name": "Parantez"
      },
      "geometry": {
        "type": "Point",
        "coordinates": [
          28.9742861,
          41.0293169
        ]
      },
      "id": "node/3877233632"
    },
    {
      "type": "Feature",
      "properties": {
        "@id": "node/3877233890",
        "amenity": "bar",
        "name": "Ambiyans"
      },
      "geometry": {
        "type": "Point",
        "coordinates": [
          28.9740113,
          41.0287059
        ]
      },
      "id": "node/3877233890"
    },
    {
      "type": "Feature",
      "properties": {
        "@id": "node/3877233891",
        "amenity": "bar",
        "name": "Pocoloco"
      },
      "geometry": {
        "type": "Point",
        "coordinates": [
          28.9740167,
          41.0288675
        ]
      },
      "id": "node/3877233891"
    },
    {
      "type": "Feature",
      "properties": {
        "@id": "node/3877233897",
        "amenity": "bar",
        "name": "Kafe Pi"
      },
      "geometry": {
        "type": "Point",
        "coordinates": [
          28.9741903,
          41.0290101
        ]
      },
      "id": "node/3877233897"
    },
    {
      "type": "Feature",
      "properties": {
        "@id": "node/3877233898",
        "amenity": "bar",
        "name": "Ugly"
      },
      "geometry": {
        "type": "Point",
        "coordinates": [
          28.9742324,
          41.0292127
        ]
      },
      "id": "node/3877233898"
    },
    {
      "type": "Feature",
      "properties": {
        "@id": "node/4161756617",
        "amenity": "bar",
        "name": "Karaoke MIDO"
      },
      "geometry": {
        "type": "Point",
        "coordinates": [
          29.0263053,
          41.0492307
        ]
      },
      "id": "node/4161756617"
    },
    {
      "type": "Feature",
      "properties": {
        "@id": "node/4165209990",
        "amenity": "bar",
        "name": "Bay Biraci",
        "wheelchair": "no"
      },
      "geometry": {
        "type": "Point",
        "coordinates": [
          29.0253201,
          41.0481394
        ]
      },
      "id": "node/4165209990"
    },
    {
      "type": "Feature",
      "properties": {
        "@id": "node/4224524796",
        "amenity": "bar",
        "cuisine": "burger;pasta;cake;coffee_shop",
        "internet_access": "wlan",
        "name": "SCHLEPP Cafe & Pub",
        "website": "http://www.schlepp.pub/"
      },
      "geometry": {
        "type": "Point",
        "coordinates": [
          29.0306204,
          40.9909532
        ]
      },
      "id": "node/4224524796"
    },
    {
      "type": "Feature",
      "properties": {
        "@id": "node/4235171929",
        "addr:street": "Bağdat Caddesi",
        "amenity": "bar",
        "name": "İdealtepe Sahil",
        "opening_hours": "24/7",
        "smoking": "isolated"
      },
      "geometry": {
        "type": "Point",
        "coordinates": [
          29.1129443,
          40.9339496
        ]
      },
      "id": "node/4235171929"
    },
    {
      "type": "Feature",
      "properties": {
        "@id": "node/4339633692",
        "amenity": "bar",
        "name": "сок и еда"
      },
      "geometry": {
        "type": "Point",
        "coordinates": [
          28.9736922,
          41.0146945
        ]
      },
      "id": "node/4339633692"
    },
    {
      "type": "Feature",
      "properties": {
        "@id": "node/4407305490",
        "addr:street": "İskele Sokak",
        "amenity": "bar",
        "name": "Yer Fıstığı",
        "name:tr": "Yer Fıstığı"
      },
      "geometry": {
        "type": "Point",
        "coordinates": [
          29.0655236,
          40.9641933
        ]
      },
      "id": "node/4407305490"
    },
    {
      "type": "Feature",
      "properties": {
        "@id": "node/4416253192",
        "amenity": "bar",
        "name": "Hully's House",
        "name:tr": "Hully's House"
      },
      "geometry": {
        "type": "Point",
        "coordinates": [
          29.0982897,
          40.9515361
        ]
      },
      "id": "node/4416253192"
    },
    {
      "type": "Feature",
      "properties": {
        "@id": "node/4416309591",
        "amenity": "bar",
        "name": "Kale",
        "name:tr": "Kale Pilsen"
      },
      "geometry": {
        "type": "Point",
        "coordinates": [
          29.0951556,
          40.9536008
        ]
      },
      "id": "node/4416309591"
    },
    {
      "type": "Feature",
      "properties": {
        "@id": "node/4448869791",
        "amenity": "bar",
        "internet_access": "wlan",
        "name": "Leyla teras",
        "name:tr": "Leyla teras"
      },
      "geometry": {
        "type": "Point",
        "coordinates": [
          28.9818581,
          41.0358671
        ]
      },
      "id": "node/4448869791"
    },
    {
      "type": "Feature",
      "properties": {
        "@id": "node/4460642599",
        "amenity": "bar",
        "name": "Hayalperest",
        "name:tr": "Hayalperest",
        "opening_hours": "PH,Mo-Su 10:00-02:00"
      },
      "geometry": {
        "type": "Point",
        "coordinates": [
          29.0277507,
          40.9897943
        ]
      },
      "id": "node/4460642599"
    },
    {
      "type": "Feature",
      "properties": {
        "@id": "node/4460642696",
        "amenity": "bar",
        "name:en": "Pendor corner"
      },
      "geometry": {
        "type": "Point",
        "coordinates": [
          28.9788336,
          41.0351616
        ]
      },
      "id": "node/4460642696"
    },
    {
      "type": "Feature",
      "properties": {
        "@id": "node/4535332593",
        "amenity": "bar",
        "name": "Caravan Rock bar",
        "name:en": "Caravan Rock Bar",
        "name:tr": "Caravan Rock bar"
      },
      "geometry": {
        "type": "Point",
        "coordinates": [
          28.9774719,
          41.0343461
        ]
      },
      "id": "node/4535332593"
    },
    {
      "type": "Feature",
      "properties": {
        "@id": "node/4535589891",
        "amenity": "bar",
        "name": "Kırmızı Tazı",
        "name:tr": "Kırmızı Tazı"
      },
      "geometry": {
        "type": "Point",
        "coordinates": [
          28.976992,
          41.03505
        ]
      },
      "id": "node/4535589891"
    },
    {
      "type": "Feature",
      "properties": {
        "@id": "node/4535597992",
        "addr:housenumber": "17",
        "addr:street": "Mis Sokağı",
        "amenity": "bar",
        "opening_hours": "Mo-Su 20:00-04:00"
      },
      "geometry": {
        "type": "Point",
        "coordinates": [
          28.9815704,
          41.0361736
        ]
      },
      "id": "node/4535597992"
    },
    {
      "type": "Feature",
      "properties": {
        "@id": "node/4548512390",
        "amenity": "bar"
      },
      "geometry": {
        "type": "Point",
        "coordinates": [
          28.9715448,
          41.0151111
        ]
      },
      "id": "node/4548512390"
    },
    {
      "type": "Feature",
      "properties": {
        "@id": "node/4556313089",
        "amenity": "bar",
        "name:ar": "بازار الخميس في سارير"
      },
      "geometry": {
        "type": "Point",
        "coordinates": [
          29.057517,
          41.168783
        ]
      },
      "id": "node/4556313089"
    },
    {
      "type": "Feature",
      "properties": {
        "@id": "node/4580648263",
        "amenity": "bar",
        "name": "Old English Pub"
      },
      "geometry": {
        "type": "Point",
        "coordinates": [
          29.0762935,
          40.9623181
        ]
      },
      "id": "node/4580648263"
    },
    {
      "type": "Feature",
      "properties": {
        "@id": "node/4642456596",
        "addr:street": "kapataş",
        "amenity": "bar",
        "name": "gemi ⚓"
      },
      "geometry": {
        "type": "Point",
        "coordinates": [
          28.9938696,
          41.0358541
        ]
      },
      "id": "node/4642456596"
    },
    {
      "type": "Feature",
      "properties": {
        "@id": "node/4723676489",
        "amenity": "bar",
        "name": "Özel Harman"
      },
      "geometry": {
        "type": "Point",
        "coordinates": [
          28.9772453,
          41.0346987
        ]
      },
      "id": "node/4723676489"
    },
    {
      "type": "Feature",
      "properties": {
        "@id": "node/4723676689",
        "amenity": "bar",
        "name": "Beer Point",
        "name:tr": "Beer Point"
      },
      "geometry": {
        "type": "Point",
        "coordinates": [
          29.0091697,
          41.0413878
        ]
      },
      "id": "node/4723676689"
    },
    {
      "type": "Feature",
      "properties": {
        "@id": "node/4732836823",
        "amenity": "bar",
        "name": "Nyx",
        "wheelchair": "no"
      },
      "geometry": {
        "type": "Point",
        "coordinates": [
          29.0266654,
          40.9867932
        ]
      },
      "id": "node/4732836823"
    },
    {
      "type": "Feature",
      "properties": {
        "@id": "node/4768146222",
        "amenity": "bar",
        "name": "Toprak Türkü Evi",
        "name:tr": "Toprak türkü evi"
      },
      "geometry": {
        "type": "Point",
        "coordinates": [
          28.982683,
          41.0346423
        ]
      },
      "id": "node/4768146222"
    },
    {
      "type": "Feature",
      "properties": {
        "@id": "node/4786672225",
        "amenity": "bar",
        "name": "tayfun",
        "name:en": "teyfun",
        "name:tr": "tetja rafet"
      },
      "geometry": {
        "type": "Point",
        "coordinates": [
          28.9492065,
          41.0719356
        ]
      },
      "id": "node/4786672225"
    },
    {
      "type": "Feature",
      "properties": {
        "@id": "node/4788050823",
        "amenity": "bar",
        "name": "Tetja Rafet",
        "name:tr": "Tetja Rafet"
      },
      "geometry": {
        "type": "Point",
        "coordinates": [
          28.9436618,
          41.0744636
        ]
      },
      "id": "node/4788050823"
    },
    {
      "type": "Feature",
      "properties": {
        "@id": "node/4812380221",
        "addr:street": "General Yazgan Sokağı",
        "amenity": "bar",
        "internet_access": "wlan",
        "name": "Arpa Pub",
        "name:tr": "Arpa Pub"
      },
      "geometry": {
        "type": "Point",
        "coordinates": [
          28.9743715,
          41.0288456
        ]
      },
      "id": "node/4812380221"
    },
    {
      "type": "Feature",
      "properties": {
        "@id": "node/4813647824",
        "addr:street": "Moda Caddesi",
        "amenity": "bar",
        "check_date": "2024-11-01",
        "internet_access": "wlan",
        "name": "Fil Moda"
      },
      "geometry": {
        "type": "Point",
        "coordinates": [
          29.0255213,
          40.9867795
        ]
      },
      "id": "node/4813647824"
    },
    {
      "type": "Feature",
      "properties": {
        "@id": "node/4813965121",
        "amenity": "bar",
        "internet_access": "wlan",
        "name": "Harp Irish Bar",
        "name:en": "Harp Irish Bar",
        "name:tr": "Harp Irish Bar"
      },
      "geometry": {
        "type": "Point",
        "coordinates": [
          29.0219739,
          40.989139
        ]
      },
      "id": "node/4813965121"
    },
    {
      "type": "Feature",
      "properties": {
        "@id": "node/4816553522",
        "addr:street": "Akarsu Sk.",
        "amenity": "bar",
        "name": "Indigo",
        "name:en": "Indigo",
        "name:tr": "Indigo"
      },
      "geometry": {
        "type": "Point",
        "coordinates": [
          28.977223,
          41.0326877
        ]
      },
      "id": "node/4816553522"
    },
    {
      "type": "Feature",
      "properties": {
        "@id": "node/4833396568",
        "amenity": "bar",
        "check_date": "2024-11-02",
        "name": "Railway"
      },
      "geometry": {
        "type": "Point",
        "coordinates": [
          29.0270504,
          40.9875599
        ]
      },
      "id": "node/4833396568"
    },
    {
      "type": "Feature",
      "properties": {
        "@id": "node/4883931724",
        "amenity": "bar",
        "check_date": "2024-08-12",
        "name": "Flekk",
        "name:en": "Flekk"
      },
      "geometry": {
        "type": "Point",
        "coordinates": [
          28.9783583,
          41.0318653
        ]
      },
      "id": "node/4883931724"
    },
    {
      "type": "Feature",
      "properties": {
        "@id": "node/4927027523",
        "amenity": "bar",
        "cuisine": "friture",
        "name": "Mezzo Bar",
        "name:en": "Mezzo Pub",
        "name:tr": "Mezzo bar"
      },
      "geometry": {
        "type": "Point",
        "coordinates": [
          28.9767306,
          41.0338784
        ]
      },
      "id": "node/4927027523"
    },
    {
      "type": "Feature",
      "properties": {
        "@id": "node/4943268321",
        "amenity": "bar",
        "name": "mansor bar",
        "name:en": "Mansour bar"
      },
      "geometry": {
        "type": "Point",
        "coordinates": [
          28.645744,
          41.018131
        ]
      },
      "id": "node/4943268321"
    },
    {
      "type": "Feature",
      "properties": {
        "@id": "node/4962158821",
        "amenity": "bar",
        "name:en": "Stanpoli cafe"
      },
      "geometry": {
        "type": "Point",
        "coordinates": [
          28.9752533,
          41.0030807
        ]
      },
      "id": "node/4962158821"
    },
    {
      "type": "Feature",
      "properties": {
        "@id": "node/4966546324",
        "addr:housenumber": "16",
        "addr:postcode": "34714",
        "addr:street": "Piri Çavuş Sokağı",
        "amenity": "bar",
        "internet_access": "wlan",
        "name": "Mahle"
      },
      "geometry": {
        "type": "Point",
        "coordinates": [
          29.0279914,
          40.9890328
        ]
      },
      "id": "node/4966546324"
    },
    {
      "type": "Feature",
      "properties": {
        "@id": "node/4966551221",
        "addr:housenumber": "13",
        "addr:postcode": "34714",
        "addr:street": "Piri Çavuş Sokağı",
        "amenity": "bar",
        "name": "London Pub"
      },
      "geometry": {
        "type": "Point",
        "coordinates": [
          29.0280063,
          40.9891202
        ]
      },
      "id": "node/4966551221"
    },
    {
      "type": "Feature",
      "properties": {
        "@id": "node/4988731123",
        "amenity": "bar",
        "name": "BOS Zamanlar",
        "name:tr": "BOS Zamanlar"
      },
      "geometry": {
        "type": "Point",
        "coordinates": [
          28.9819436,
          41.0356481
        ]
      },
      "id": "node/4988731123"
    },
    {
      "type": "Feature",
      "properties": {
        "@id": "node/5043344976",
        "addr:city": "İstanbul",
        "addr:district": "Kadıköy",
        "addr:housenumber": "204",
        "addr:neighbourhood": "Fenerbahçe Mahallesi",
        "addr:postcode": "34726",
        "addr:street": "Bağdat Caddesi",
        "amenity": "bar",
        "name": "Babbo Pizza & Bar",
        "opening_hours": "Mo-Su 11:00-23:00",
        "operator": "Babbo",
        "outdoor_seating": "yes",
        "smoking": "outside",
        "website": "https://restaurantguru.com/Cafe-Babas-Istanbul"
      },
      "geometry": {
        "type": "Point",
        "coordinates": [
          29.0534048,
          40.9745999
        ]
      },
      "id": "node/5043344976"
    },
    {
      "type": "Feature",
      "properties": {
        "@id": "node/5081445067",
        "addr:city": "İstanbul",
        "addr:district": "Fatih",
        "addr:street": "Abdülezelpaşa Caddesi",
        "amenity": "bar",
        "name": "Bal Cafe Bar",
        "name:ar": "بار بالكافي",
        "operator:type": "private"
      },
      "geometry": {
        "type": "Point",
        "coordinates": [
          28.9582376,
          41.0264988
        ]
      },
      "id": "node/5081445067"
    },
    {
      "type": "Feature",
      "properties": {
        "@id": "node/5088190877",
        "addr:city": "Istanbul",
        "addr:district": "Fatih",
        "addr:street": "Gümüş Yüksük Sokak",
        "amenity": "bar",
        "name": "Tarihi Küçük Paris Meyhanesi",
        "name:ar": "حانة كوتشوك باريس التاريخية",
        "phone": "05325934542"
      },
      "geometry": {
        "type": "Point",
        "coordinates": [
          28.9318829,
          41.0000487
        ]
      },
      "id": "node/5088190877"
    },
    {
      "type": "Feature",
      "properties": {
        "@id": "node/5099062150",
        "addr:city": "Istanbul",
        "addr:district": "Fatih",
        "addr:street": "Manastırlı rıfat sokağı",
        "amenity": "bar",
        "name": "Laguna disco bar",
        "name:ar": "ملهى و بار لاغونا"
      },
      "geometry": {
        "type": "Point",
        "coordinates": [
          28.9489191,
          41.0076471
        ]
      },
      "id": "node/5099062150"
    },
    {
      "type": "Feature",
      "properties": {
        "@id": "node/5107305902",
        "addr:city": "Istanbul",
        "addr:district": "Fatih",
        "addr:street": "Abdüllatif Paşa Sokağı",
        "amenity": "bar",
        "name": "Rainbow Club",
        "name:ar": "نادي رينبو"
      },
      "geometry": {
        "type": "Point",
        "coordinates": [
          28.9483044,
          41.0082077
        ]
      },
      "id": "node/5107305902"
    },
    {
      "type": "Feature",
      "properties": {
        "@id": "node/5109319021",
        "addr:housenumber": "13",
        "addr:street": "Kamer Hatun Caddesi",
        "amenity": "bar",
        "cuisine": "turkish",
        "internet_access": "wlan",
        "name": "Asmaaltı Beyoğlu",
        "opening_hours": "Mo-Su 12:00-02:00",
        "phone": "+90 (212) 252 59 56"
      },
      "geometry": {
        "type": "Point",
        "coordinates": [
          28.9769266,
          41.0350128
        ]
      },
      "id": "node/5109319021"
    },
    {
      "type": "Feature",
      "properties": {
        "@id": "node/5111212304",
        "addr:city": "Istanbul",
        "addr:district": "Fatih",
        "addr:street": "Bankacilar sokak",
        "amenity": "bar",
        "name": "Valide"
      },
      "geometry": {
        "type": "Point",
        "coordinates": [
          28.9731103,
          41.0161553
        ]
      },
      "id": "node/5111212304"
    },
    {
      "type": "Feature",
      "properties": {
        "@id": "node/5112834070",
        "addr:city": "Istanbul",
        "addr:district": "Fatih",
        "addr:street": "İnkilap caddesi",
        "amenity": "bar",
        "name": "Modül bar",
        "name:ar": "حانة مودول"
      },
      "geometry": {
        "type": "Point",
        "coordinates": [
          28.9526471,
          41.0082008
        ]
      },
      "id": "node/5112834070"
    },
    {
      "type": "Feature",
      "properties": {
        "@id": "node/5112966985",
        "addr:city": "Istanbul",
        "addr:district": "Fatih",
        "addr:street": "Gazi kemalpaşa caddesi",
        "amenity": "bar",
        "name": "Gar casino",
        "name:ar": "كازينو غار"
      },
      "geometry": {
        "type": "Point",
        "coordinates": [
          28.953258,
          41.0052126
        ]
      },
      "id": "node/5112966985"
    },
    {
      "type": "Feature",
      "properties": {
        "@id": "node/5113620640",
        "addr:city": "Istanbul",
        "addr:district": "Turkey",
        "addr:street": "Akbıyık Caddesi",
        "amenity": "bar",
        "name": "Just Bar"
      },
      "geometry": {
        "type": "Point",
        "coordinates": [
          28.9806797,
          41.0059858
        ]
      },
      "id": "node/5113620640"
    },
    {
      "type": "Feature",
      "properties": {
        "@id": "node/5171238822",
        "addr:housenumber": "9/a",
        "addr:street": "Kılıç Ali Pasa Mescidi Sokağı",
        "amenity": "bar",
        "name": "Muhit",
        "name:en": "Muhit",
        "name:tr": "Muhit",
        "wheelchair": "no"
      },
      "geometry": {
        "type": "Point",
        "coordinates": [
          28.9812686,
          41.0258298
        ]
      },
      "id": "node/5171238822"
    },
    {
      "type": "Feature",
      "properties": {
        "@id": "node/5249823410",
        "amenity": "bar",
        "check_date": "2024-11-02",
        "name": "Hiç"
      },
      "geometry": {
        "type": "Point",
        "coordinates": [
          29.0265582,
          40.9875103
        ]
      },
      "id": "node/5249823410"
    },
    {
      "type": "Feature",
      "properties": {
        "@id": "node/5270266088",
        "addr:city": "İstanbul",
        "addr:district": "Kadıköy",
        "addr:neighbourhood": "Bostancı Mahallesi",
        "addr:postcode": "34744",
        "addr:street": "Şemsettin Günaltay Caddesi",
        "amenity": "bar",
        "name": "Beerfest",
        "operator": "Bar",
        "outdoor_seating": "no",
        "smoking": "isolated"
      },
      "geometry": {
        "type": "Point",
        "coordinates": [
          29.0948821,
          40.9596686
        ]
      },
      "id": "node/5270266088"
    },
    {
      "type": "Feature",
      "properties": {
        "@id": "node/5281963649",
        "amenity": "bar",
        "name": "Ritim Galata Pub"
      },
      "geometry": {
        "type": "Point",
        "coordinates": [
          28.9741164,
          41.0253502
        ]
      },
      "id": "node/5281963649"
    },
    {
      "type": "Feature",
      "properties": {
        "@id": "node/5282941380",
        "amenity": "bar",
        "name": "Mimoza Türkü Bar"
      },
      "geometry": {
        "type": "Point",
        "coordinates": [
          29.1672885,
          40.8973321
        ]
      },
      "id": "node/5282941380"
    },
    {
      "type": "Feature",
      "properties": {
        "@id": "node/5283704749",
        "amenity": "bar",
        "name": "Clup Ship O hoy"
      },
      "geometry": {
        "type": "Point",
        "coordinates": [
          29.1673962,
          40.8967082
        ]
      },
      "id": "node/5283704749"
    },
    {
      "type": "Feature",
      "properties": {
        "@id": "node/5284690854",
        "addr:city": "İstanbul",
        "addr:district": "Kadıköy",
        "addr:housenumber": "482-484",
        "addr:neighbourhood": "Bostancı Mahallesi",
        "addr:postcode": "34744",
        "addr:street": "Bağdat Caddesi",
        "amenity": "bar",
        "name": "Gizia Brasserie",
        "opening_hours": "10:00 - 00:00",
        "website": "https://www.giziabrasserie.com/tr/lokasyonlar/suadiye/"
      },
      "geometry": {
        "type": "Point",
        "coordinates": [
          29.0889151,
          40.9561878
        ]
      },
      "id": "node/5284690854"
    },
    {
      "type": "Feature",
      "properties": {
        "@id": "node/5288044512",
        "amenity": "bar",
        "name": "Beyrut Performance"
      },
      "geometry": {
        "type": "Point",
        "coordinates": [
          29.1713798,
          40.893954
        ]
      },
      "id": "node/5288044512"
    },
    {
      "type": "Feature",
      "properties": {
        "@id": "node/5308557025",
        "amenity": "bar"
      },
      "geometry": {
        "type": "Point",
        "coordinates": [
          28.9791419,
          41.0313884
        ]
      },
      "id": "node/5308557025"
    },
    {
      "type": "Feature",
      "properties": {
        "@id": "node/5312380384",
        "amenity": "bar",
        "level": "2",
        "name": "Biber Bar"
      },
      "geometry": {
        "type": "Point",
        "coordinates": [
          29.100261,
          40.9983689
        ]
      },
      "id": "node/5312380384"
    },
    {
      "type": "Feature",
      "properties": {
        "@id": "node/5314981606",
        "amenity": "bar",
        "name": "Ezo Türkü Bar"
      },
      "geometry": {
        "type": "Point",
        "coordinates": [
          29.1907472,
          40.8895353
        ]
      },
      "id": "node/5314981606"
    },
    {
      "type": "Feature",
      "properties": {
        "@id": "node/5329335356",
        "addr:city": "İstanbul",
        "addr:district": "Pendik",
        "addr:street": "Kuran kursu caddesi",
        "amenity": "bar",
        "name": "Korkmaz tekel",
        "name:ar": "مشروبات كحولية كوركماز"
      },
      "geometry": {
        "type": "Point",
        "coordinates": [
          29.2649125,
          40.9545825
        ]
      },
      "id": "node/5329335356"
    },
    {
      "type": "Feature",
      "properties": {
        "@id": "node/5329338131",
        "addr:city": "İstanbul",
        "addr:district": "Sultanbeyli",
        "addr:street": "Erdoğan caddesi",
        "amenity": "bar",
        "name": "Köşem Tekel ve kuruyemiş",
        "name:ar": "مشروبات كحولية كوشيم"
      },
      "geometry": {
        "type": "Point",
        "coordinates": [
          29.2736458,
          40.9647263
        ]
      },
      "id": "node/5329338131"
    },
    {
      "type": "Feature",
      "properties": {
        "@id": "node/5370651425",
        "amenity": "bar",
        "name": "Asmalıpera Pub"
      },
      "geometry": {
        "type": "Point",
        "coordinates": [
          28.9748528,
          41.0298266
        ]
      },
      "id": "node/5370651425"
    },
    {
      "type": "Feature",
      "properties": {
        "@id": "node/5484713121",
        "amenity": "bar",
        "name": "Sirena"
      },
      "geometry": {
        "type": "Point",
        "coordinates": [
          28.9726078,
          41.0195818
        ]
      },
      "id": "node/5484713121"
    },
    {
      "type": "Feature",
      "properties": {
        "@id": "node/5488337232",
        "air_conditioning": "yes",
        "amenity": "bar",
        "level": "-1;0",
        "name": "Nardis Jazz Bar",
        "outdoor_seating": "no",
        "payment:visa": "yes"
      },
      "geometry": {
        "type": "Point",
        "coordinates": [
          28.9738984,
          41.0253051
        ]
      },
      "id": "node/5488337232"
    },
    {
      "type": "Feature",
      "properties": {
        "@id": "node/5516516380",
        "amenity": "bar",
        "name": "Haydar Rock"
      },
      "geometry": {
        "type": "Point",
        "coordinates": [
          28.9818647,
          41.0348206
        ]
      },
      "id": "node/5516516380"
    },
    {
      "type": "Feature",
      "properties": {
        "@id": "node/5523732709",
        "addr:city": "Istanbul",
        "addr:district": "Beşiktaş",
        "addr:housenumber": "46",
        "addr:neighbourhood": "Vişnezade Mahallesi",
        "addr:postcode": "34357",
        "addr:street": "Süleyman Seba Caddesi",
        "amenity": "bar",
        "brewery": "yes;various",
        "name": "Beer Hall",
        "opening_hours": "12:00-02:00",
        "phone": "+90 212 219 65 30",
        "smoking": "isolated"
      },
      "geometry": {
        "type": "Point",
        "coordinates": [
          29.0010414,
          41.0425282
        ]
      },
      "id": "node/5523732709"
    },
    {
      "type": "Feature",
      "properties": {
        "@id": "node/5529400834",
        "addr:city": "Istanbul",
        "addr:district": "Beyoğlu",
        "addr:housenumber": "56",
        "addr:postcode": "34421",
        "addr:street": "Galip Dede Caddesi",
        "amenity": "bar",
        "level": "5",
        "name": "Snog Rooftop Bar",
        "website": "https://www.snog.com.tr/"
      },
      "geometry": {
        "type": "Point",
        "coordinates": [
          28.9744533,
          41.0265013
        ]
      },
      "id": "node/5529400834"
    },
    {
      "type": "Feature",
      "properties": {
        "@id": "node/5529400837",
        "amenity": "bar",
        "name": "Legacy Ottoman Roof Bar",
        "opening_hours": "Mo-Su 12:00-02:00"
      },
      "geometry": {
        "type": "Point",
        "coordinates": [
          28.9742345,
          41.015719
        ]
      },
      "id": "node/5529400837"
    },
    {
      "type": "Feature",
      "properties": {
        "@id": "node/5565935224",
        "amenity": "bar",
        "brewery": "yes",
        "name": "sahika",
        "outdoor_seating": "yes"
      },
      "geometry": {
        "type": "Point",
        "coordinates": [
          28.9776395,
          41.0348004
        ]
      },
      "id": "node/5565935224"
    },
    {
      "type": "Feature",
      "properties": {
        "@id": "node/5585706322",
        "amenity": "bar",
        "name:en": "Kumkapi Cafe and Pub"
      },
      "geometry": {
        "type": "Point",
        "coordinates": [
          28.9647072,
          41.0046295
        ]
      },
      "id": "node/5585706322"
    },
    {
      "type": "Feature",
      "properties": {
        "@id": "node/5663533734",
        "amenity": "bar",
        "name": "Snog roof top bar",
        "wheelchair": "no"
      },
      "geometry": {
        "type": "Point",
        "coordinates": [
          28.9746955,
          41.026546
        ]
      },
      "id": "node/5663533734"
    },
    {
      "type": "Feature",
      "properties": {
        "@id": "node/5668652116",
        "addr:city": "İstanbul",
        "addr:district": "Beyoğlu",
        "amenity": "bar",
        "name": "Balkon Cafe & Bar",
        "opening_hours": "Mo-Su 18:00-02:00"
      },
      "geometry": {
        "type": "Point",
        "coordinates": [
          28.9739559,
          41.0297951
        ]
      },
      "id": "node/5668652116"
    },
    {
      "type": "Feature",
      "properties": {
        "@id": "node/5669004147",
        "addr:district": "Beyoğlu",
        "amenity": "bar",
        "name": "Lala"
      },
      "geometry": {
        "type": "Point",
        "coordinates": [
          28.974377,
          41.0294506
        ]
      },
      "id": "node/5669004147"
    },
    {
      "type": "Feature",
      "properties": {
        "@id": "node/5741040521",
        "addr:housenumber": "22",
        "addr:postcode": "34433",
        "addr:street": "Akarsu Yokuşu",
        "amenity": "bar",
        "name": "Geyik",
        "name:tr": "Geyik",
        "opening_hours": "Mo-Su 16:00-02:00"
      },
      "geometry": {
        "type": "Point",
        "coordinates": [
          28.9838431,
          41.0303528
        ]
      },
      "id": "node/5741040521"
    },
    {
      "type": "Feature",
      "properties": {
        "@id": "node/5751400836",
        "amenity": "bar",
        "name": "Efendi",
        "name:tr": "Efendi"
      },
      "geometry": {
        "type": "Point",
        "coordinates": [
          28.9956851,
          41.0514489
        ]
      },
      "id": "node/5751400836"
    },
    {
      "type": "Feature",
      "properties": {
        "@id": "node/5832126485",
        "amenity": "bar",
        "cuisine": "turkish;coffee_shop"
      },
      "geometry": {
        "type": "Point",
        "coordinates": [
          28.9798431,
          41.0337785
        ]
      },
      "id": "node/5832126485"
    },
    {
      "type": "Feature",
      "properties": {
        "@id": "node/5881940910",
        "addr:city": "Istanbul",
        "addr:housenumber": "5",
        "addr:neighbourhood": "Cihannüma",
        "addr:postcode": "34353",
        "addr:street": "Saray Caddesi",
        "air_conditioning": "yes",
        "amenity": "bar",
        "email": "isthc_conrad@conradhotels.com",
        "indoor_seating": "yes",
        "name": "Summit Bar & Terrace",
        "opening_hours": "12:00-01:30",
        "operator": "Hilton",
        "outdoor_seating": "yes",
        "phone": "+90 212 310 2525",
        "smoking": "outside",
        "website": "https://conradhotels3.hilton.com/en/hotels/turkey/conrad-istanbul-bosphorus-ISTHCCI/amenities/restaurants-summit.html?WT.mc_id=zELWAKN0EMEA1CI2DMH3LocalSearch4DGGenericx6ISTHCCI",
        "wheelchair": "yes",
        "wikidata": "Q61579707"
      },
      "geometry": {
        "type": "Point",
        "coordinates": [
          29.0097283,
          41.0472936
        ]
      },
      "id": "node/5881940910"
    },
    {
      "type": "Feature",
      "properties": {
        "@id": "node/6013991030",
        "addr:city": "İstanbul",
        "addr:district": "Kadıköy",
        "addr:housenumber": "204b",
        "addr:neighbourhood": "Fenerbahçe Mahallesi",
        "addr:postcode": "34726",
        "addr:street": "Bağdat Caddesi",
        "amenity": "bar",
        "name": "Zeplin Pub",
        "opening_hours": "Mo-Su 11:00-18:00+",
        "outdoor_seating": "yes",
        "smoking": "outside",
        "website": "https://zeplinpub.com/"
      },
      "geometry": {
        "type": "Point",
        "coordinates": [
          29.0535257,
          40.9745605
        ]
      },
      "id": "node/6013991030"
    },
    {
      "type": "Feature",
      "properties": {
        "@id": "node/6050760586",
        "amenity": "bar",
        "name:en": "Seferi"
      },
      "geometry": {
        "type": "Point",
        "coordinates": [
          28.8218377,
          40.9773346
        ]
      },
      "id": "node/6050760586"
    },
    {
      "type": "Feature",
      "properties": {
        "@id": "node/6050883292",
        "amenity": "bar",
        "name:en": "By BTA"
      },
      "geometry": {
        "type": "Point",
        "coordinates": [
          28.8181405,
          40.9766539
        ]
      },
      "id": "node/6050883292"
    },
    {
      "type": "Feature",
      "properties": {
        "@id": "node/6050886491",
        "amenity": "bar",
        "name:en": "Seferi"
      },
      "geometry": {
        "type": "Point",
        "coordinates": [
          28.8159981,
          40.9765681
        ]
      },
      "id": "node/6050886491"
    },
    {
      "type": "Feature",
      "properties": {
        "@id": "node/6050894687",
        "amenity": "bar",
        "name:en": "Eat & Fly"
      },
      "geometry": {
        "type": "Point",
        "coordinates": [
          28.8168847,
          40.9779198
        ]
      },
      "id": "node/6050894687"
    },
    {
      "type": "Feature",
      "properties": {
        "@id": "node/6050902286",
        "amenity": "bar",
        "name:en": "BTA"
      },
      "geometry": {
        "type": "Point",
        "coordinates": [
          28.81645,
          40.9765945
        ]
      },
      "id": "node/6050902286"
    },
    {
      "type": "Feature",
      "properties": {
        "@id": "node/6116062089",
        "amenity": "bar",
        "name": "Freya Akaretler",
        "name:tr": "Freya Akaretler"
      },
      "geometry": {
        "type": "Point",
        "coordinates": [
          29.0025044,
          41.0426178
        ]
      },
      "id": "node/6116062089"
    },
    {
      "type": "Feature",
      "properties": {
        "@id": "node/6116133385",
        "amenity": "bar",
        "name": "Tail Akaretler",
        "name:tr": "Tail Akaretler"
      },
      "geometry": {
        "type": "Point",
        "coordinates": [
          29.0026136,
          41.0424213
        ]
      },
      "id": "node/6116133385"
    },
    {
      "type": "Feature",
      "properties": {
        "@id": "node/6116727790",
        "amenity": "bar",
        "name:en": "Gizli bahce"
      },
      "geometry": {
        "type": "Point",
        "coordinates": [
          28.9779773,
          41.0349281
        ]
      },
      "id": "node/6116727790"
    },
    {
      "type": "Feature",
      "properties": {
        "@id": "node/6116804086",
        "amenity": "bar",
        "name:en": "Papillon"
      },
      "geometry": {
        "type": "Point",
        "coordinates": [
          28.9781471,
          41.0352648
        ]
      },
      "id": "node/6116804086"
    },
    {
      "type": "Feature",
      "properties": {
        "@id": "node/6123549085",
        "amenity": "bar",
        "name": "Kum Saati Jazz Blues Club",
        "name:tr": "Kum Saati Jazz Blues Club"
      },
      "geometry": {
        "type": "Point",
        "coordinates": [
          28.9734038,
          41.0295745
        ]
      },
      "id": "node/6123549085"
    },
    {
      "type": "Feature",
      "properties": {
        "@id": "node/6181185185",
        "amenity": "bar",
        "internet_access": "yes",
        "internet_access:fee": "no",
        "name": "Al Gotür",
        "wheelchair": "no"
      },
      "geometry": {
        "type": "Point",
        "coordinates": [
          28.9728224,
          41.0294206
        ]
      },
      "id": "node/6181185185"
    },
    {
      "type": "Feature",
      "properties": {
        "@id": "node/6185772371",
        "amenity": "bar",
        "level": "1",
        "name": "Snog roof",
        "wheelchair": "limited"
      },
      "geometry": {
        "type": "Point",
        "coordinates": [
          28.9746149,
          41.0264003
        ]
      },
      "id": "node/6185772371"
    },
    {
      "type": "Feature",
      "properties": {
        "@id": "node/6259341995",
        "amenity": "bar",
        "name:en": "Plan B eatery"
      },
      "geometry": {
        "type": "Point",
        "coordinates": [
          29.0275079,
          40.9943436
        ]
      },
      "id": "node/6259341995"
    },
    {
      "type": "Feature",
      "properties": {
        "@id": "node/6259342087",
        "amenity": "bar",
        "check_date": "2022-12-24",
        "fixme": "Location incorrect, should be just across Roots Corner",
        "name:en": "Roots"
      },
      "geometry": {
        "type": "Point",
        "coordinates": [
          29.0289773,
          40.9941486
        ]
      },
      "id": "node/6259342087"
    },
    {
      "type": "Feature",
      "properties": {
        "@id": "node/6271719726",
        "addr:housenumber": "11a",
        "addr:street": "Mimar Kemal Öke Caddesi",
        "amenity": "bar",
        "name": "Must",
        "name:tr": "Must"
      },
      "geometry": {
        "type": "Point",
        "coordinates": [
          28.9906103,
          41.0500935
        ]
      },
      "id": "node/6271719726"
    },
    {
      "type": "Feature",
      "properties": {
        "@id": "node/6271721906",
        "addr:housenumber": "4",
        "addr:street": "Cebel Topu Sokak",
        "amenity": "bar",
        "name": "Klein",
        "name:tr": "Klein"
      },
      "geometry": {
        "type": "Point",
        "coordinates": [
          28.9860382,
          41.0456661
        ]
      },
      "id": "node/6271721906"
    },
    {
      "type": "Feature",
      "properties": {
        "@id": "node/6296619897",
        "amenity": "bar",
        "internet_access": "wlan",
        "name": "Shisha Devari"
      },
      "geometry": {
        "type": "Point",
        "coordinates": [
          28.9794332,
          41.0264944
        ]
      },
      "id": "node/6296619897"
    },
    {
      "type": "Feature",
      "properties": {
        "@id": "node/6312427085",
        "addr:housenumber": "17a",
        "addr:street": "Gazeteci Erol Dernek Sokağı",
        "amenity": "bar",
        "internet_access": "wlan",
        "name:en": "Artists",
        "opening_hours": "Mo-Su 11:00-03:00",
        "website": "http://artistlerkahvesi.com"
      },
      "geometry": {
        "type": "Point",
        "coordinates": [
          28.9800077,
          41.0338787
        ]
      },
      "id": "node/6312427085"
    },
    {
      "type": "Feature",
      "properties": {
        "@id": "node/6383807263",
        "amenity": "bar",
        "name": "Benzin"
      },
      "geometry": {
        "type": "Point",
        "coordinates": [
          29.0228236,
          40.9901246
        ]
      },
      "id": "node/6383807263"
    },
    {
      "type": "Feature",
      "properties": {
        "@id": "node/6417075085",
        "amenity": "bar",
        "fixme": "verify",
        "name": "Beer House"
      },
      "geometry": {
        "type": "Point",
        "coordinates": [
          28.9785434,
          41.0343281
        ]
      },
      "id": "node/6417075085"
    },
    {
      "type": "Feature",
      "properties": {
        "@id": "node/6531878042",
        "amenity": "bar",
        "name": "Hera"
      },
      "geometry": {
        "type": "Point",
        "coordinates": [
          29.0266164,
          40.9868216
        ]
      },
      "id": "node/6531878042"
    },
    {
      "type": "Feature",
      "properties": {
        "@id": "node/6531878043",
        "amenity": "bar",
        "name": "Buddha Sahne"
      },
      "geometry": {
        "type": "Point",
        "coordinates": [
          29.026609,
          40.9867011
        ]
      },
      "id": "node/6531878043"
    },
    {
      "type": "Feature",
      "properties": {
        "@id": "node/6531878044",
        "addr:housenumber": "16",
        "addr:street": "Kadife Sokak",
        "amenity": "bar",
        "name": "Karga"
      },
      "geometry": {
        "type": "Point",
        "coordinates": [
          29.0265837,
          40.9866436
        ]
      },
      "id": "node/6531878044"
    },
    {
      "type": "Feature",
      "properties": {
        "@id": "node/6531917628",
        "amenity": "bar",
        "name": "Lâl"
      },
      "geometry": {
        "type": "Point",
        "coordinates": [
          29.0267473,
          40.9866943
        ]
      },
      "id": "node/6531917628"
    },
    {
      "type": "Feature",
      "properties": {
        "@id": "node/6547046302",
        "amenity": "bar",
        "name": "Semtin Bar"
      },
      "geometry": {
        "type": "Point",
        "coordinates": [
          28.8713347,
          40.9898586
        ]
      },
      "id": "node/6547046302"
    },
    {
      "type": "Feature",
      "properties": {
        "@id": "node/6710927744",
        "amenity": "bar",
        "name": "Bara la Afrika"
      },
      "geometry": {
        "type": "Point",
        "coordinates": [
          28.9740562,
          41.0305428
        ]
      },
      "id": "node/6710927744"
    },
    {
      "type": "Feature",
      "properties": {
        "@id": "node/6729653234",
        "addr:postcode": "34435",
        "amenity": "bar",
        "brewery": "yes",
        "contact:phone": "+90 212 251 62 58",
        "name": "Lambo",
        "opening_hours": "Mo-Su 10:00-03:00",
        "outdoor_seating": "yes"
      },
      "geometry": {
        "type": "Point",
        "coordinates": [
          28.9775413,
          41.0347765
        ]
      },
      "id": "node/6729653234"
    },
    {
      "type": "Feature",
      "properties": {
        "@id": "node/6834301286",
        "amenity": "bar",
        "name:en": "Bonn"
      },
      "geometry": {
        "type": "Point",
        "coordinates": [
          28.9703579,
          41.0234129
        ]
      },
      "id": "node/6834301286"
    },
    {
      "type": "Feature",
      "properties": {
        "@id": "node/6834326785",
        "amenity": "bar",
        "name": "Bova",
        "name:en": "Temple"
      },
      "geometry": {
        "type": "Point",
        "coordinates": [
          28.9815768,
          41.0361098
        ]
      },
      "id": "node/6834326785"
    },
    {
      "type": "Feature",
      "properties": {
        "@id": "node/6837822086",
        "amenity": "bar",
        "name:en": "Biergarten"
      },
      "geometry": {
        "type": "Point",
        "coordinates": [
          29.007429,
          41.0479773
        ]
      },
      "id": "node/6837822086"
    },
    {
      "type": "Feature",
      "properties": {
        "@id": "node/6840608586",
        "amenity": "bar",
        "name:en": "Arsen Lupen"
      },
      "geometry": {
        "type": "Point",
        "coordinates": [
          28.9815773,
          41.0360849
        ]
      },
      "id": "node/6840608586"
    },
    {
      "type": "Feature",
      "properties": {
        "@id": "node/6896228085",
        "addr:housenumber": "23/a",
        "addr:postcode": "34710",
        "addr:street": "Dumlupınar Sokağı",
        "amenity": "bar",
        "contact:instagram": "neva_kadikoy",
        "cuisine": "turkish",
        "level": "1",
        "name": "Neva",
        "opening_hours": "Sa-Su 11:00-03:00; Mo-Fr 11:00-02:00",
        "outdoor_seating": "yes",
        "phone": "+90 532 287 7179"
      },
      "geometry": {
        "type": "Point",
        "coordinates": [
          29.0239696,
          40.9892155
        ]
      },
      "id": "node/6896228085"
    },
    {
      "type": "Feature",
      "properties": {
        "@id": "node/6896780885",
        "amenity": "bar",
        "name": "Muaf Bar",
        "name:en": "Muaf beyoglu",
        "opening_hours": "Mo-Su,PH 09:30-02:00+"
      },
      "geometry": {
        "type": "Point",
        "coordinates": [
          28.9827647,
          41.0366236
        ]
      },
      "id": "node/6896780885"
    },
    {
      "type": "Feature",
      "properties": {
        "@id": "node/6961577864",
        "amenity": "bar",
        "name": "Wild Rose"
      },
      "geometry": {
        "type": "Point",
        "coordinates": [
          28.5900257,
          41.0177335
        ]
      },
      "id": "node/6961577864"
    },
    {
      "type": "Feature",
      "properties": {
        "@id": "node/7036359886",
        "addr:street": "Bostancı Veli Sokağı",
        "amenity": "bar",
        "cuisine": "chicken;regional;hot_dog;oriental;sandwich;sausage;coffee_shop;local;barbecue;friture;burger;cake;turkish;pasta;grill",
        "diet:vegetarian": "yes",
        "internet_access": "wlan",
        "name": "Kilit",
        "name:en": "Lock",
        "opening_hours": "Mo-Su 14:00-02:00"
      },
      "geometry": {
        "type": "Point",
        "coordinates": [
          29.007137,
          41.0464027
        ]
      },
      "id": "node/7036359886"
    },
    {
      "type": "Feature",
      "properties": {
        "@id": "node/7130989479",
        "amenity": "bar",
        "name": "Ağaç Ev",
        "opening_hours": "PH,Mo-Su 11:00-04:00"
      },
      "geometry": {
        "type": "Point",
        "coordinates": [
          29.0278,
          40.9902
        ]
      },
      "id": "node/7130989479"
    },
    {
      "type": "Feature",
      "properties": {
        "@id": "node/7175723268",
        "amenity": "bar",
        "check_date": "2025-01-18",
        "name": "Berlin line"
      },
      "geometry": {
        "type": "Point",
        "coordinates": [
          28.9796485,
          41.0251373
        ]
      },
      "id": "node/7175723268"
    },
    {
      "type": "Feature",
      "properties": {
        "@id": "node/7287814090",
        "amenity": "bar",
        "name": "Kumbara"
      },
      "geometry": {
        "type": "Point",
        "coordinates": [
          29.3051242,
          40.8150286
        ]
      },
      "id": "node/7287814090"
    },
    {
      "type": "Feature",
      "properties": {
        "@id": "node/7424883589",
        "amenity": "bar",
        "brewery": "various",
        "min_age": "18",
        "name": "Ufuk Tekel",
        "opening_hours": "24/7"
      },
      "geometry": {
        "type": "Point",
        "coordinates": [
          28.8879692,
          41.078009
        ]
      },
      "id": "node/7424883589"
    },
    {
      "type": "Feature",
      "properties": {
        "@id": "node/7527122818",
        "addr:city": "istanbul",
        "addr:district": "sarıyer",
        "addr:housenumber": "88",
        "addr:neighbourhood": "Yeniköy mahallesi",
        "addr:street": "Köybaşı Caddesi",
        "air_conditioning": "yes",
        "amenity": "bar",
        "brewery": "yes",
        "contact:phone": "+90 212 223 30 34",
        "name": "Fettan Meze&Bar",
        "opening_hours": "Mo-Su 15:00-01:00"
      },
      "geometry": {
        "type": "Point",
        "coordinates": [
          29.0696691,
          41.1209701
        ]
      },
      "id": "node/7527122818"
    },
    {
      "type": "Feature",
      "properties": {
        "@id": "node/7532820936",
        "addr:city": "istanbul",
        "addr:district": "sarıyer",
        "addr:housenumber": "159",
        "addr:neighbourhood": "Yeniköy mahallesi",
        "addr:street": "Köybaşı Caddesi",
        "amenity": "bar",
        "brewery": "yes",
        "name": "Triple",
        "opening_hours": "Mo-Su 10:00-00:00",
        "opening_hours:covid19": "off",
        "outdoor_seating": "yes",
        "phone": "+90 (212) 299 03 33"
      },
      "geometry": {
        "type": "Point",
        "coordinates": [
          29.0637452,
          41.1171273
        ]
      },
      "id": "node/7532820936"
    },
    {
      "type": "Feature",
      "properties": {
        "@id": "node/7533009529",
        "addr:city": "istanbul",
        "addr:district": "sarıyer",
        "addr:housenumber": "13/A",
        "addr:neighbourhood": "rumeli hisarı mahallesi",
        "addr:street": "Hisar Caddesi",
        "amenity": "bar",
        "brewery": "yes",
        "name": "J.R Dallas",
        "opening_hours:covid19": "off",
        "outdoor_seating": "yes",
        "phone": "0212 277 10 77"
      },
      "geometry": {
        "type": "Point",
        "coordinates": [
          29.0564914,
          41.0896466
        ]
      },
      "id": "node/7533009529"
    },
    {
      "type": "Feature",
      "properties": {
        "@id": "node/7542258849",
        "addr:city": "İstanbul",
        "addr:district": "Beşiktaş",
        "addr:neighbourhood": "Bebek",
        "addr:street": "Cevdetpaşa Caddesi",
        "amenity": "bar",
        "name": "Chilai",
        "opening_hours": "Mo-Su 10:00-02:00",
        "outdoor_seating": "yes",
        "payment:cash": "yes",
        "payment:credit_cards": "yes",
        "phone": "0212 263 63 15",
        "website": "https://www.chilai.com.tr/"
      },
      "geometry": {
        "type": "Point",
        "coordinates": [
          29.0449536,
          41.0784831
        ]
      },
      "id": "node/7542258849"
    },
    {
      "type": "Feature",
      "properties": {
        "@id": "node/7542280341",
        "addr:city": "İstanbul",
        "addr:district": "Beşiktaş",
        "addr:housenumber": "56",
        "addr:neighbourhood": "Bebek",
        "addr:street": "Cevdetpaşa Caddesi",
        "amenity": "bar",
        "name": "Bebek Lokal",
        "opening_hours": "Mo-Su 09:00-02:00",
        "phone": "0212 265 59 59",
        "website": "https://facebook.com/bebeklokall"
      },
      "geometry": {
        "type": "Point",
        "coordinates": [
          29.0449041,
          41.0784497
        ]
      },
      "id": "node/7542280341"
    },
    {
      "type": "Feature",
      "properties": {
        "@id": "node/7551256801",
        "addr:city": "İstanbul",
        "addr:district": "Kadıköy",
        "addr:neighbourhood": "Suadiye Mahallesi",
        "addr:street": "Kazım Özalp Sokağı",
        "amenity": "bar",
        "name": "AYI",
        "opening_hours": "?- 02:00"
      },
      "geometry": {
        "type": "Point",
        "coordinates": [
          29.0748248,
          40.9614156
        ]
      },
      "id": "node/7551256801"
    },
    {
      "type": "Feature",
      "properties": {
        "@id": "node/7552372013",
        "addr:city": "İstanbul",
        "addr:district": "Beşiktaş",
        "addr:housenumber": "35",
        "addr:neighbourhood": "Bebek",
        "addr:street": "Cevdetpaşa Caddesi",
        "amenity": "bar",
        "brewery": "yes;Heineken;Leffe_Brune;Leffe_Blonde;Leffe_Radieuse;Beck's;Efes;Bomonti;Bud;Miller;Duvel",
        "description": "Bu mekanın Fajitası meşhurdur.",
        "internet_access": "yes",
        "internet_access:fee": "customers",
        "name": "Kırıntı Cafe Bar",
        "opening_hours": "Mo-Su 09:00-02:00",
        "outdoor_seating": "yes",
        "payment:cash": "yes",
        "payment:credit_cards": "yes",
        "phone": "0212 257 67 27",
        "website": "https://kirinti.com.tr/"
      },
      "geometry": {
        "type": "Point",
        "coordinates": [
          29.0429827,
          41.075742
        ]
      },
      "id": "node/7552372013"
    },
    {
      "type": "Feature",
      "properties": {
        "@id": "node/7553222928",
        "addr:city": "İstanbul",
        "addr:district": "Beşiktaş",
        "addr:housenumber": "83",
        "addr:neighbourhood": "Arnavutköy",
        "addr:street": "Bebek Arnavutköy Caddesi",
        "amenity": "bar",
        "brewery": "yes;various",
        "internet_access": "yes",
        "min_age": "18",
        "name": "Halet-i Ruhiye",
        "opening_hours": "Mo-Su 20:00-04:00",
        "opening_hours:covid19": "off",
        "outdoor_seating": "no",
        "payment:cash": "yes",
        "payment:credit_cards": "yes"
      },
      "geometry": {
        "type": "Point",
        "coordinates": [
          29.0436443,
          41.0675722
        ]
      },
      "id": "node/7553222928"
    },
    {
      "type": "Feature",
      "properties": {
        "@id": "node/7555021359",
        "addr:city": "İstanbul",
        "addr:district": "Beşiktaş",
        "addr:housenumber": "4",
        "addr:neighbourhood": "Arnavutköy",
        "addr:postcode": "34345",
        "addr:street": "Bakkal Sokağı",
        "amenity": "bar",
        "brewery": "yes",
        "description": "Canlı müzik mevcuttur.",
        "internet_access": "yes",
        "name": "Level Arnavutköy",
        "opening_hours": "Mo-Su 18:00-03:00",
        "opening_hours:covid19": "off",
        "payment:cash": "yes",
        "payment:credit_cards": "yes",
        "phone": "0532 662 11 71"
      },
      "geometry": {
        "type": "Point",
        "coordinates": [
          29.0423565,
          41.0672113
        ]
      },
      "id": "node/7555021359"
    },
    {
      "type": "Feature",
      "properties": {
        "@id": "node/7626299470",
        "amenity": "bar",
        "name": "Keçi"
      },
      "geometry": {
        "type": "Point",
        "coordinates": [
          29.0947134,
          40.9535068
        ]
      },
      "id": "node/7626299470"
    },
    {
      "type": "Feature",
      "properties": {
        "@id": "node/7626324347",
        "amenity": "bar",
        "name": "Traingar"
      },
      "geometry": {
        "type": "Point",
        "coordinates": [
          29.0950789,
          40.9533866
        ]
      },
      "id": "node/7626324347"
    },
    {
      "type": "Feature",
      "properties": {
        "@id": "node/7626334320",
        "amenity": "bar",
        "name": "Kabasakal"
      },
      "geometry": {
        "type": "Point",
        "coordinates": [
          29.0952493,
          40.9533071
        ]
      },
      "id": "node/7626334320"
    },
    {
      "type": "Feature",
      "properties": {
        "@id": "node/7695484890",
        "amenity": "bar",
        "name": "Ayı",
        "wheelchair": "no"
      },
      "geometry": {
        "type": "Point",
        "coordinates": [
          28.6443952,
          41.0124958
        ]
      },
      "id": "node/7695484890"
    },
    {
      "type": "Feature",
      "properties": {
        "@id": "node/7750327985",
        "addr:housenumber": "5B",
        "addr:street": "Sadi Konuralp Caddesi",
        "amenity": "bar",
        "name": "Monkey Istanbul"
      },
      "geometry": {
        "type": "Point",
        "coordinates": [
          28.9720632,
          41.0283239
        ]
      },
      "id": "node/7750327985"
    },
    {
      "type": "Feature",
      "properties": {
        "@id": "node/8015874985",
        "amenity": "bar",
        "name:en": "kiki"
      },
      "geometry": {
        "type": "Point",
        "coordinates": [
          28.9839704,
          41.0333807
        ]
      },
      "id": "node/8015874985"
    },
    {
      "type": "Feature",
      "properties": {
        "@id": "node/8015965663",
        "amenity": "bar",
        "name:en": "mask"
      },
      "geometry": {
        "type": "Point",
        "coordinates": [
          28.9743894,
          41.0301939
        ]
      },
      "id": "node/8015965663"
    },
    {
      "type": "Feature",
      "properties": {
        "@id": "node/8016567485",
        "amenity": "bar",
        "name": "Pablo"
      },
      "geometry": {
        "type": "Point",
        "coordinates": [
          29.0262147,
          40.9896453
        ]
      },
      "id": "node/8016567485"
    },
    {
      "type": "Feature",
      "properties": {
        "@id": "node/8069454886",
        "amenity": "bar",
        "name:en": "Bar street",
        "name:ru": "Улица баров"
      },
      "geometry": {
        "type": "Point",
        "coordinates": [
          28.9774691,
          41.0349453
        ]
      },
      "id": "node/8069454886"
    },
    {
      "type": "Feature",
      "properties": {
        "@id": "node/8071847141",
        "amenity": "bar",
        "name": "Beer Plus"
      },
      "geometry": {
        "type": "Point",
        "coordinates": [
          29.004306,
          41.0439389
        ]
      },
      "id": "node/8071847141"
    },
    {
      "type": "Feature",
      "properties": {
        "@id": "node/8084683912",
        "amenity": "bar",
        "name:en": "Foxy"
      },
      "geometry": {
        "type": "Point",
        "coordinates": [
          28.978913,
          41.0256555
        ]
      },
      "id": "node/8084683912"
    },
    {
      "type": "Feature",
      "properties": {
        "@id": "node/8105175694",
        "amenity": "bar",
        "name": "Limon"
      },
      "geometry": {
        "type": "Point",
        "coordinates": [
          29.0035214,
          41.0430971
        ]
      },
      "id": "node/8105175694"
    },
    {
      "type": "Feature",
      "properties": {
        "@id": "node/8146854699",
        "amenity": "bar",
        "name": "Fil Bira Bahçesi"
      },
      "geometry": {
        "type": "Point",
        "coordinates": [
          29.0438726,
          41.0028491
        ]
      },
      "id": "node/8146854699"
    },
    {
      "type": "Feature",
      "properties": {
        "@id": "node/8173713399",
        "amenity": "bar",
        "name": "Beer House"
      },
      "geometry": {
        "type": "Point",
        "coordinates": [
          29.0043729,
          41.0438227
        ]
      },
      "id": "node/8173713399"
    },
    {
      "type": "Feature",
      "properties": {
        "@id": "node/8176610587",
        "amenity": "bar",
        "name": "Aksi Bar"
      },
      "geometry": {
        "type": "Point",
        "coordinates": [
          29.0400973,
          41.0007061
        ]
      },
      "id": "node/8176610587"
    },
    {
      "type": "Feature",
      "properties": {
        "@id": "node/8223784325",
        "addr:housenumber": "62",
        "addr:street": "Moda caddesi",
        "amenity": "bar",
        "check_date": "2024-11-01",
        "name": "Draft"
      },
      "geometry": {
        "type": "Point",
        "coordinates": [
          29.0255318,
          40.9868102
        ]
      },
      "id": "node/8223784325"
    },
    {
      "type": "Feature",
      "properties": {
        "@id": "node/8322016254",
        "amenity": "bar",
        "name": "Beer More"
      },
      "geometry": {
        "type": "Point",
        "coordinates": [
          28.6376511,
          41.0033418
        ]
      },
      "id": "node/8322016254"
    },
    {
      "type": "Feature",
      "properties": {
        "@id": "node/8322016255",
        "amenity": "bar",
        "name": "Patron Club"
      },
      "geometry": {
        "type": "Point",
        "coordinates": [
          28.6373883,
          41.0034066
        ]
      },
      "id": "node/8322016255"
    },
    {
      "type": "Feature",
      "properties": {
        "@id": "node/8322016272",
        "amenity": "bar",
        "name": "Leon Arena"
      },
      "geometry": {
        "type": "Point",
        "coordinates": [
          28.6375921,
          41.0033682
        ]
      },
      "id": "node/8322016272"
    },
    {
      "type": "Feature",
      "properties": {
        "@id": "node/8494196892",
        "addr:city": "İstanbul",
        "addr:district": "Sinanpaşa",
        "addr:housenumber": "1",
        "addr:postcode": "34353",
        "addr:street": "Hayrettin İskelesi Sokağı",
        "air_conditioning": "yes",
        "amenity": "bar",
        "cuisine": "tapas",
        "email": "lobbylounge.slib@shangri-la.com",
        "level": "0",
        "name": "Le Bar",
        "opening_hours": "Mo-Su 17:00-01:00",
        "opening_hours:covid19": "off",
        "outdoor_seating": "no",
        "phone": "+90 (212) 275 8888",
        "smoking": "no",
        "website": "https://www.shangri-la.com/istanbul/shangrila/dining/bars-lounges/le-bar/"
      },
      "geometry": {
        "type": "Point",
        "coordinates": [
          29.005217,
          41.0404245
        ]
      },
      "id": "node/8494196892"
    },
    {
      "type": "Feature",
      "properties": {
        "@id": "node/8494196893",
        "addr:city": "İstanbul",
        "addr:district": "Sinanpaşa",
        "addr:housenumber": "1",
        "addr:postcode": "34353",
        "addr:street": "Hayrettin İskelesi Sokağı",
        "air_conditioning": "yes",
        "amenity": "bar",
        "email": "lobbylounge.slib@shangri-la.com",
        "level": "0",
        "name": "Lobby Lounge",
        "opening_hours": "Mo-Su 11:00-23:00",
        "outdoor_seating": "yes",
        "phone": "+90 (212) 275 8888",
        "smoking": "no"
      },
      "geometry": {
        "type": "Point",
        "coordinates": [
          29.005126,
          41.0405037
        ]
      },
      "id": "node/8494196893"
    },
    {
      "type": "Feature",
      "properties": {
        "@id": "node/8566435550",
        "amenity": "bar",
        "name": "Kozzbeer"
      },
      "geometry": {
        "type": "Point",
        "coordinates": [
          29.096333,
          40.9759829
        ]
      },
      "id": "node/8566435550"
    },
    {
      "type": "Feature",
      "properties": {
        "@id": "node/8821282498",
        "addr:city": "İstanbul",
        "addr:district": "Kadıköy",
        "addr:housenumber": "21",
        "addr:neighbourhood": "Caferaga Mah.",
        "addr:postcode": "34734",
        "addr:street": "Kadife Sokağı",
        "amenity": "bar",
        "name": "Egnoes"
      },
      "geometry": {
        "type": "Point",
        "coordinates": [
          29.0267262,
          40.9866398
        ]
      },
      "id": "node/8821282498"
    },
    {
      "type": "Feature",
      "properties": {
        "@id": "node/8957915819",
        "amenity": "bar",
        "name:en": "IGA Lounge Domestic"
      },
      "geometry": {
        "type": "Point",
        "coordinates": [
          28.7481226,
          41.2587127
        ]
      },
      "id": "node/8957915819"
    },
    {
      "type": "Feature",
      "properties": {
        "@id": "node/8957915918",
        "air_conditioning": "yes",
        "amenity": "bar",
        "check_date": "2023-01-15",
        "internet_access": "wlan",
        "internet_access:fee": "customers",
        "name:en": "Turkish Airlines CIP Lounge Domestic",
        "operator": "Turkish Airlines",
        "wheelchair": "yes"
      },
      "geometry": {
        "type": "Point",
        "coordinates": [
          28.748621,
          41.2588315
        ]
      },
      "id": "node/8957915918"
    },
    {
      "type": "Feature",
      "properties": {
        "@id": "node/9003087898",
        "addr:housenumber": "26A",
        "addr:street": "Moda Mektebi Sokak",
        "amenity": "bar",
        "name": "Kutup Moda"
      },
      "geometry": {
        "type": "Point",
        "coordinates": [
          29.0244079,
          40.9809581
        ]
      },
      "id": "node/9003087898"
    },
    {
      "type": "Feature",
      "properties": {
        "@id": "node/9045017517",
        "amenity": "bar",
        "check_date": "2025-01-18",
        "name": "Skull and Bones Cocktail Bar"
      },
      "geometry": {
        "type": "Point",
        "coordinates": [
          28.978783,
          41.0243975
        ]
      },
      "id": "node/9045017517"
    },
    {
      "type": "Feature",
      "properties": {
        "@id": "node/9053163517",
        "amenity": "bar",
        "name": "Deniz Yildizi"
      },
      "geometry": {
        "type": "Point",
        "coordinates": [
          29.0247848,
          40.9902888
        ]
      },
      "id": "node/9053163517"
    },
    {
      "type": "Feature",
      "properties": {
        "@id": "node/9061144517",
        "amenity": "bar",
        "name:en": "Kumkapi"
      },
      "geometry": {
        "type": "Point",
        "coordinates": [
          28.9645714,
          41.005113
        ]
      },
      "id": "node/9061144517"
    },
    {
      "type": "Feature",
      "properties": {
        "@id": "node/9067430417",
        "addr:housenumber": "71",
        "addr:postcode": "34345",
        "addr:street": "Bebek Arnavutköy Caddesi",
        "amenity": "bar",
        "name:en": "Any cafe & bar",
        "opening_hours": "Mo-Su 09:00-02:30",
        "phone": "+902122653269",
        "website": "https://m.facebook.com/anyistanbul/"
      },
      "geometry": {
        "type": "Point",
        "coordinates": [
          29.0431699,
          41.0674018
        ]
      },
      "id": "node/9067430417"
    },
    {
      "type": "Feature",
      "properties": {
        "@id": "node/9080110117",
        "amenity": "bar",
        "name": "Bristol"
      },
      "geometry": {
        "type": "Point",
        "coordinates": [
          29.0241199,
          40.9880341
        ]
      },
      "id": "node/9080110117"
    },
    {
      "type": "Feature",
      "properties": {
        "@id": "node/9080110317",
        "amenity": "bar",
        "name": "Goy Goy"
      },
      "geometry": {
        "type": "Point",
        "coordinates": [
          29.0241545,
          40.9878512
        ]
      },
      "id": "node/9080110317"
    },
    {
      "type": "Feature",
      "properties": {
        "@id": "node/9090561822",
        "amenity": "bar",
        "name": "V"
      },
      "geometry": {
        "type": "Point",
        "coordinates": [
          29.0269229,
          40.9901693
        ]
      },
      "id": "node/9090561822"
    },
    {
      "type": "Feature",
      "properties": {
        "@id": "node/9178322919",
        "amenity": "bar",
        "name": "The Harp by Gold House",
        "name:en": "Shine terrace"
      },
      "geometry": {
        "type": "Point",
        "coordinates": [
          29.0221058,
          40.9890402
        ]
      },
      "id": "node/9178322919"
    },
    {
      "type": "Feature",
      "properties": {
        "@id": "node/9190051645",
        "amenity": "bar",
        "name": "Club Lupe",
        "opening_hours": "21:00-5:00"
      },
      "geometry": {
        "type": "Point",
        "coordinates": [
          28.9821356,
          41.0353394
        ]
      },
      "id": "node/9190051645"
    },
    {
      "type": "Feature",
      "properties": {
        "@id": "node/9205038917",
        "amenity": "bar"
      },
      "geometry": {
        "type": "Point",
        "coordinates": [
          28.9826564,
          41.035569
        ]
      },
      "id": "node/9205038917"
    },
    {
      "type": "Feature",
      "properties": {
        "@id": "node/9261964017",
        "addr:street": "Dumlupınar Sokağı",
        "amenity": "bar",
        "check_date": "2023-11-24",
        "contact:website": "http://cciqrmenum.com/i/kuzen",
        "name": "Kuzen Beer"
      },
      "geometry": {
        "type": "Point",
        "coordinates": [
          29.0244444,
          40.9888932
        ]
      },
      "id": "node/9261964017"
    },
    {
      "type": "Feature",
      "properties": {
        "@id": "node/9266414217",
        "addr:housenumber": "11",
        "addr:street": "Arayıcıbaşı Sokağı",
        "amenity": "bar",
        "name": "11 Kadikoy"
      },
      "geometry": {
        "type": "Point",
        "coordinates": [
          29.0270575,
          40.9881206
        ]
      },
      "id": "node/9266414217"
    },
    {
      "type": "Feature",
      "properties": {
        "@id": "node/9278208417",
        "amenity": "bar",
        "name:en": "Kharon"
      },
      "geometry": {
        "type": "Point",
        "coordinates": [
          28.9817005,
          41.0347551
        ]
      },
      "id": "node/9278208417"
    },
    {
      "type": "Feature",
      "properties": {
        "@id": "node/9278775518",
        "amenity": "bar",
        "name:en": "Kozmonot"
      },
      "geometry": {
        "type": "Point",
        "coordinates": [
          28.9963798,
          41.0511749
        ]
      },
      "id": "node/9278775518"
    },
    {
      "type": "Feature",
      "properties": {
        "@id": "node/9282305917",
        "amenity": "bar",
        "name:en": "kulup"
      },
      "geometry": {
        "type": "Point",
        "coordinates": [
          28.9846364,
          41.0341043
        ]
      },
      "id": "node/9282305917"
    },
    {
      "type": "Feature",
      "properties": {
        "@id": "node/9308650915",
        "amenity": "bar",
        "name": "Zurich"
      },
      "geometry": {
        "type": "Point",
        "coordinates": [
          29.0260257,
          40.9877377
        ]
      },
      "id": "node/9308650915"
    },
    {
      "type": "Feature",
      "properties": {
        "@id": "node/9311628021",
        "amenity": "bar",
        "brewery": "no",
        "internet_access": "yes",
        "min_age": "15",
        "name:ar": "Moroccan House",
        "opening_hours:covid19": "24/7",
        "smoking": "dedicated"
      },
      "geometry": {
        "type": "Point",
        "coordinates": [
          28.681547,
          41.0333293
        ]
      },
      "id": "node/9311628021"
    },
    {
      "type": "Feature",
      "properties": {
        "@id": "node/9397751417",
        "amenity": "bar",
        "name:en": "IQOS HEETS",
        "name:ru": "тут есть стики iqos"
      },
      "geometry": {
        "type": "Point",
        "coordinates": [
          28.9812724,
          41.0362342
        ]
      },
      "id": "node/9397751417"
    },
    {
      "type": "Feature",
      "properties": {
        "@id": "node/9416015511",
        "addr:city": "Istanbul",
        "addr:district": "Bağcılar",
        "addr:housenumber": "45/z1",
        "addr:neighbourhood": "15 Temmuz Mahallesi",
        "addr:postcode": "34212",
        "addr:street": "Bahar Caddesi",
        "amenity": "bar",
        "description": "Bar Street",
        "min_age": "18",
        "name": "Blablabla Istanbul",
        "opening_hours": "Mo-Su 10:00-22:00",
        "phone": "+905350347777",
        "website": "https://www.blablablaistanbul.com/"
      },
      "geometry": {
        "type": "Point",
        "coordinates": [
          28.8109365,
          41.0394458
        ]
      },
      "id": "node/9416015511"
    },
    {
      "type": "Feature",
      "properties": {
        "@id": "node/9500713917",
        "amenity": "bar",
        "name": "Beer corner"
      },
      "geometry": {
        "type": "Point",
        "coordinates": [
          28.980064,
          41.034043
        ]
      },
      "id": "node/9500713917"
    },
    {
      "type": "Feature",
      "properties": {
        "@id": "node/9510245822",
        "amenity": "bar",
        "name": "Black House",
        "name:en": "Black House"
      },
      "geometry": {
        "type": "Point",
        "coordinates": [
          29.0215816,
          40.9801652
        ]
      },
      "id": "node/9510245822"
    },
    {
      "type": "Feature",
      "properties": {
        "@id": "node/9510419017",
        "amenity": "bar",
        "check_date": "2023-11-30",
        "name:en": "Bristol"
      },
      "geometry": {
        "type": "Point",
        "coordinates": [
          29.0236072,
          40.9882309
        ]
      },
      "id": "node/9510419017"
    },
    {
      "type": "Feature",
      "properties": {
        "@id": "node/9586664617",
        "amenity": "bar",
        "internet_access": "wlan",
        "name": "16Roof",
        "opening_hours": "Mo-Su 17:00-02:00",
        "phone": "0905493261112"
      },
      "geometry": {
        "type": "Point",
        "coordinates": [
          28.9974923,
          41.0403114
        ]
      },
      "id": "node/9586664617"
    },
    {
      "type": "Feature",
      "properties": {
        "@id": "node/9670693026",
        "amenity": "bar",
        "check_date": "2024-11-02",
        "name": "Passenger"
      },
      "geometry": {
        "type": "Point",
        "coordinates": [
          29.0260735,
          40.9870786
        ]
      },
      "id": "node/9670693026"
    },
    {
      "type": "Feature",
      "properties": {
        "@id": "node/9786517782",
        "amenity": "bar",
        "name": "Mekan"
      },
      "geometry": {
        "type": "Point",
        "coordinates": [
          29.0293145,
          40.9951345
        ]
      },
      "id": "node/9786517782"
    },
    {
      "type": "Feature",
      "properties": {
        "@id": "node/9875661717",
        "amenity": "bar"
      },
      "geometry": {
        "type": "Point",
        "coordinates": [
          28.132426,
          41.0666992
        ]
      },
      "id": "node/9875661717"
    },
    {
      "type": "Feature",
      "properties": {
        "@id": "node/9902430017",
        "amenity": "bar",
        "name": "Gadi",
        "name:en": "Gadi"
      },
      "geometry": {
        "type": "Point",
        "coordinates": [
          29.272977,
          40.8200738
        ]
      },
      "id": "node/9902430017"
    },
    {
      "type": "Feature",
      "properties": {
        "@id": "node/9904632288",
        "amenity": "bar",
        "name": "Dekk",
        "website": "https://www.dekk.ist/"
      },
      "geometry": {
        "type": "Point",
        "coordinates": [
          28.9905292,
          41.0473196
        ]
      },
      "id": "node/9904632288"
    },
    {
      "type": "Feature",
      "properties": {
        "@id": "node/9916939691",
        "addr:housenumber": "3A",
        "amenity": "bar",
        "name": "Salpa"
      },
      "geometry": {
        "type": "Point",
        "coordinates": [
          29.0275604,
          40.9891044
        ]
      },
      "id": "node/9916939691"
    },
    {
      "type": "Feature",
      "properties": {
        "@id": "node/9924878217",
        "addr:housenumber": "27a",
        "addr:street": "Florya Caddesi",
        "amenity": "bar",
        "cuisine": "turkish",
        "name": "Gaja Garden",
        "website": "https://allzinapp.com/gajagardenhookahlounge/menu"
      },
      "geometry": {
        "type": "Point",
        "coordinates": [
          28.7936296,
          40.9815453
        ]
      },
      "id": "node/9924878217"
    },
    {
      "type": "Feature",
      "properties": {
        "@id": "node/9924979118",
        "amenity": "bar",
        "name:en": "Rose Garden"
      },
      "geometry": {
        "type": "Point",
        "coordinates": [
          28.7937371,
          40.9817823
        ]
      },
      "id": "node/9924979118"
    },
    {
      "type": "Feature",
      "properties": {
        "@id": "node/9967244017",
        "addr:street": "Vişnezade, Dolmabahçe Cd., 34357 Beşiktaş/İstanbul, Turchia",
        "amenity": "bar",
        "name": "Limonluk Cafe - Dolmabahçe Sarayı/Palace",
        "opening_hours": "Tu-Su 09:00-17:30",
        "phone": "+90 212 236 90 00",
        "website": "https://msi.projects-tr.com/"
      },
      "geometry": {
        "type": "Point",
        "coordinates": [
          29.0015656,
          41.0404467
        ]
      },
      "id": "node/9967244017"
    },
    {
      "type": "Feature",
      "properties": {
        "@id": "node/10085667517",
        "amenity": "bar",
        "name:en": "Yuri Gagarin"
      },
      "geometry": {
        "type": "Point",
        "coordinates": [
          28.9804129,
          41.0340961
        ]
      },
      "id": "node/10085667517"
    },
    {
      "type": "Feature",
      "properties": {
        "@id": "node/10085677737",
        "amenity": "bar",
        "name:en": "Art Istanbul"
      },
      "geometry": {
        "type": "Point",
        "coordinates": [
          28.9804347,
          41.0341989
        ]
      },
      "id": "node/10085677737"
    },
    {
      "type": "Feature",
      "properties": {
        "@id": "node/10159071717",
        "amenity": "bar",
        "name": "Berlin platz",
        "name:en": "Berlin platz"
      },
      "geometry": {
        "type": "Point",
        "coordinates": [
          29.0261199,
          40.9896431
        ]
      },
      "id": "node/10159071717"
    },
    {
      "type": "Feature",
      "properties": {
        "@id": "node/10168815017",
        "amenity": "bar",
        "name": "Sokak"
      },
      "geometry": {
        "type": "Point",
        "coordinates": [
          29.0258574,
          40.9859331
        ]
      },
      "id": "node/10168815017"
    },
    {
      "type": "Feature",
      "properties": {
        "@id": "node/10177957592",
        "addr:housenumber": "3",
        "addr:street": "Osmancık",
        "amenity": "bar",
        "name": "Groundy Kadıköy"
      },
      "geometry": {
        "type": "Point",
        "coordinates": [
          29.0277177,
          40.989731
        ]
      },
      "id": "node/10177957592"
    },
    {
      "type": "Feature",
      "properties": {
        "@id": "node/10178032625",
        "addr:housenumber": "13",
        "addr:street": "Kırtasiyeci Sokak",
        "amenity": "bar",
        "name": "Frog"
      },
      "geometry": {
        "type": "Point",
        "coordinates": [
          29.0271535,
          40.990336
        ]
      },
      "id": "node/10178032625"
    },
    {
      "type": "Feature",
      "properties": {
        "@id": "node/10178092782",
        "addr:housenumber": "26",
        "addr:street": "Kırtasiyeci Sokak",
        "amenity": "bar",
        "name": "Harlem"
      },
      "geometry": {
        "type": "Point",
        "coordinates": [
          29.0276382,
          40.99024
        ]
      },
      "id": "node/10178092782"
    },
    {
      "type": "Feature",
      "properties": {
        "@id": "node/10178092783",
        "addr:housenumber": "15A",
        "addr:street": "Kırtasiyeci Sokak",
        "amenity": "bar",
        "name": "Muaf"
      },
      "geometry": {
        "type": "Point",
        "coordinates": [
          29.0270712,
          40.9903374
        ]
      },
      "id": "node/10178092783"
    },
    {
      "type": "Feature",
      "properties": {
        "@id": "node/10178095968",
        "addr:housenumber": "15B",
        "addr:street": "Kırtasiyeci Sokak",
        "amenity": "bar",
        "name": "Şarlo"
      },
      "geometry": {
        "type": "Point",
        "coordinates": [
          29.0272775,
          40.9903359
        ]
      },
      "id": "node/10178095968"
    },
    {
      "type": "Feature",
      "properties": {
        "@id": "node/10178438639",
        "amenity": "bar",
        "check_date": "2022-11-12",
        "name": "The Ottoman Sand Door Lounge"
      },
      "geometry": {
        "type": "Point",
        "coordinates": [
          28.9650574,
          41.0040598
        ]
      },
      "id": "node/10178438639"
    },
    {
      "type": "Feature",
      "properties": {
        "@id": "node/10209468917",
        "amenity": "bar",
        "name": "Dopamine"
      },
      "geometry": {
        "type": "Point",
        "coordinates": [
          29.0257493,
          40.9877175
        ]
      },
      "id": "node/10209468917"
    },
    {
      "type": "Feature",
      "properties": {
        "@id": "node/10209469117",
        "addr:housenumber": "48A",
        "amenity": "bar",
        "name": "Yakin Bistro",
        "name:en": "Deer house"
      },
      "geometry": {
        "type": "Point",
        "coordinates": [
          29.0274965,
          40.9888252
        ]
      },
      "id": "node/10209469117"
    },
    {
      "type": "Feature",
      "properties": {
        "@id": "node/10238253310",
        "amenity": "bar",
        "name": "York"
      },
      "geometry": {
        "type": "Point",
        "coordinates": [
          29.025859,
          40.9862178
        ]
      },
      "id": "node/10238253310"
    },
    {
      "type": "Feature",
      "properties": {
        "@id": "node/10238260009",
        "amenity": "bar",
        "name": "Bakkal"
      },
      "geometry": {
        "type": "Point",
        "coordinates": [
          29.0258918,
          40.9861896
        ]
      },
      "id": "node/10238260009"
    },
    {
      "type": "Feature",
      "properties": {
        "@id": "node/10250303604",
        "amenity": "bar",
        "brewery": "yes",
        "check_date": "2022-12-09",
        "name": "Blok",
        "opening_hours": "10:30-02:00",
        "outdoor_seating": "yes",
        "payment:mastercard": "yes",
        "payment:visa": "yes"
      },
      "geometry": {
        "type": "Point",
        "coordinates": [
          28.981576,
          41.0575408
        ]
      },
      "id": "node/10250303604"
    },
    {
      "type": "Feature",
      "properties": {
        "@id": "node/10253385009",
        "addr:street": "TUNC CK.",
        "amenity": "bar",
        "name": "Kaytan (Kafe posht ures bosforit )"
      },
      "geometry": {
        "type": "Point",
        "coordinates": [
          29.028204,
          41.0487872
        ]
      },
      "id": "node/10253385009"
    },
    {
      "type": "Feature",
      "properties": {
        "@id": "node/10291729409",
        "amenity": "bar",
        "name": "Pennylane"
      },
      "geometry": {
        "type": "Point",
        "coordinates": [
          29.067739,
          40.9674506
        ]
      },
      "id": "node/10291729409"
    },
    {
      "type": "Feature",
      "properties": {
        "@id": "node/10293593376",
        "addr:city": "İstanbul",
        "addr:district": "Kadıköy",
        "addr:housenumber": "1",
        "addr:neighbourhood": "Caferağa Mahallesi",
        "addr:postcode": "34710",
        "addr:street": "Moda Mektebi Sokağı",
        "amenity": "bar",
        "name": "Buselik Meyhane",
        "website": "https://www.buselikmeyhane.com/"
      },
      "geometry": {
        "type": "Point",
        "coordinates": [
          29.0255638,
          40.9805679
        ]
      },
      "id": "node/10293593376"
    },
    {
      "type": "Feature",
      "properties": {
        "@id": "node/10554300070",
        "amenity": "bar",
        "name": "Çivi"
      },
      "geometry": {
        "type": "Point",
        "coordinates": [
          29.0269632,
          40.9876759
        ]
      },
      "id": "node/10554300070"
    },
    {
      "type": "Feature",
      "properties": {
        "@id": "node/10556259070",
        "amenity": "bar",
        "name": "Nick Cave"
      },
      "geometry": {
        "type": "Point",
        "coordinates": [
          29.0281409,
          40.9887148
        ]
      },
      "id": "node/10556259070"
    },
    {
      "type": "Feature",
      "properties": {
        "@id": "node/10556331939",
        "amenity": "bar",
        "name": "Kaserol Social"
      },
      "geometry": {
        "type": "Point",
        "coordinates": [
          29.0289272,
          40.995529
        ]
      },
      "id": "node/10556331939"
    },
    {
      "type": "Feature",
      "properties": {
        "@id": "node/10556387340",
        "amenity": "bar",
        "name": "Publique Roof"
      },
      "geometry": {
        "type": "Point",
        "coordinates": [
          29.0265915,
          40.989683
        ]
      },
      "id": "node/10556387340"
    },
    {
      "type": "Feature",
      "properties": {
        "@id": "node/10560187909",
        "addr:housenumber": "8",
        "addr:street": "Akarsu Sokağı",
        "amenity": "bar",
        "internet_access": "wlan",
        "name:en": "Hookah Place",
        "opening_hours": "Su-Th 13:00-02:00; Fr 13:00-04:00; Sa 13:00-04:00",
        "website": "https://instagram.com/hookahplace_taksim?igshid=YmMyMTA2M2Y="
      },
      "geometry": {
        "type": "Point",
        "coordinates": [
          28.977343,
          41.0327483
        ]
      },
      "id": "node/10560187909"
    },
    {
      "type": "Feature",
      "properties": {
        "@id": "node/10973652805",
        "amenity": "bar",
        "lgbtq": "primary",
        "name": "Pinokyo Bar Terrace"
      },
      "geometry": {
        "type": "Point",
        "coordinates": [
          28.9825283,
          41.0346515
        ]
      },
      "id": "node/10973652805"
    },
    {
      "type": "Feature",
      "properties": {
        "@id": "node/10978139005",
        "addr:city": "Istanbul",
        "addr:district": "Beyoğlu",
        "addr:housenumber": "11/A",
        "addr:postcode": "34435",
        "addr:street": "Kameriye Sokağı",
        "amenity": "bar",
        "name": "Dorock Heavy Metal Club",
        "website": "https://instagram.com/dorockheavymetal"
      },
      "geometry": {
        "type": "Point",
        "coordinates": [
          28.9774348,
          41.0349494
        ]
      },
      "id": "node/10978139005"
    },
    {
      "type": "Feature",
      "properties": {
        "@id": "node/10979023998",
        "amenity": "bar",
        "name": "Küpeşte"
      },
      "geometry": {
        "type": "Point",
        "coordinates": [
          28.2404932,
          41.0736753
        ]
      },
      "id": "node/10979023998"
    },
    {
      "type": "Feature",
      "properties": {
        "@id": "node/10979023999",
        "amenity": "bar",
        "name": "Amiral"
      },
      "geometry": {
        "type": "Point",
        "coordinates": [
          28.2411052,
          41.0739881
        ]
      },
      "id": "node/10979023999"
    },
    {
      "type": "Feature",
      "properties": {
        "@id": "node/11015008109",
        "amenity": "bar",
        "name": "Kült"
      },
      "geometry": {
        "type": "Point",
        "coordinates": [
          29.0248798,
          40.9884148
        ]
      },
      "id": "node/11015008109"
    },
    {
      "type": "Feature",
      "properties": {
        "@id": "node/11015025233",
        "amenity": "bar",
        "name": "Zeytin Kafe Bar",
        "wheelchair": "no"
      },
      "geometry": {
        "type": "Point",
        "coordinates": [
          29.0249274,
          40.9882944
        ]
      },
      "id": "node/11015025233"
    },
    {
      "type": "Feature",
      "properties": {
        "@id": "node/11026373018",
        "amenity": "bar",
        "name": "Barabuy"
      },
      "geometry": {
        "type": "Point",
        "coordinates": [
          29.0237712,
          40.9807864
        ]
      },
      "id": "node/11026373018"
    },
    {
      "type": "Feature",
      "properties": {
        "@id": "node/11033266177",
        "addr:city": "İstanbul",
        "addr:district": "Kadıköy",
        "addr:housenumber": "485",
        "addr:street": "Bağdat Caddesi",
        "amenity": "bar",
        "contact:facebook": "porchistanbul",
        "name": "Porch"
      },
      "geometry": {
        "type": "Point",
        "coordinates": [
          29.088168,
          40.9568824
        ]
      },
      "id": "node/11033266177"
    },
    {
      "type": "Feature",
      "properties": {
        "@id": "node/11080259917",
        "addr:city": "İstanbul",
        "addr:district": "Kadıköy",
        "addr:housenumber": "477",
        "addr:neighbourhood": "Bostancı Mahallesi",
        "addr:postcode": "34744",
        "addr:street": "Bağdat Caddesi",
        "amenity": "bar",
        "name": "Allen Kitchen & Cocktail",
        "website": "https://allensuadiye.com/"
      },
      "geometry": {
        "type": "Point",
        "coordinates": [
          29.0872414,
          40.9574188
        ]
      },
      "id": "node/11080259917"
    },
    {
      "type": "Feature",
      "properties": {
        "@id": "node/11092482498",
        "amenity": "bar",
        "name": "Cocktail"
      },
      "geometry": {
        "type": "Point",
        "coordinates": [
          29.0264353,
          40.986095
        ]
      },
      "id": "node/11092482498"
    },
    {
      "type": "Feature",
      "properties": {
        "@id": "node/11092482499",
        "amenity": "bar",
        "name": "Barmy"
      },
      "geometry": {
        "type": "Point",
        "coordinates": [
          29.0266422,
          40.9867304
        ]
      },
      "id": "node/11092482499"
    },
    {
      "type": "Feature",
      "properties": {
        "@id": "node/11092507130",
        "amenity": "bar",
        "name": "Mathilda's Coctail Bar & Kitchen"
      },
      "geometry": {
        "type": "Point",
        "coordinates": [
          29.0266923,
          40.9883677
        ]
      },
      "id": "node/11092507130"
    },
    {
      "type": "Feature",
      "properties": {
        "@id": "node/11092507879",
        "amenity": "bar",
        "name": "Punch"
      },
      "geometry": {
        "type": "Point",
        "coordinates": [
          29.02647,
          40.9861531
        ]
      },
      "id": "node/11092507879"
    },
    {
      "type": "Feature",
      "properties": {
        "@id": "node/11152361906",
        "amenity": "bar",
        "check_date": "2025-01-18",
        "name": "Nox"
      },
      "geometry": {
        "type": "Point",
        "coordinates": [
          28.9795738,
          41.0252079
        ]
      },
      "id": "node/11152361906"
    },
    {
      "type": "Feature",
      "properties": {
        "@id": "node/11155224350",
        "addr:city": "İstanbul",
        "addr:housenumber": "23",
        "addr:postcode": "34714",
        "addr:street": "Kırtasiyeci Sk",
        "amenity": "bar",
        "name": "Kadıköy Sahne"
      },
      "geometry": {
        "type": "Point",
        "coordinates": [
          29.0277978,
          40.9903414
        ]
      },
      "id": "node/11155224350"
    },
    {
      "type": "Feature",
      "properties": {
        "@id": "node/11286466069",
        "amenity": "bar",
        "name": "Moretenders’ Cocktail Crib & Sushi"
      },
      "geometry": {
        "type": "Point",
        "coordinates": [
          28.9744923,
          41.029044
        ]
      },
      "id": "node/11286466069"
    },
    {
      "type": "Feature",
      "properties": {
        "@id": "node/11296154527",
        "amenity": "bar",
        "name": "Aylak"
      },
      "geometry": {
        "type": "Point",
        "coordinates": [
          29.0257735,
          40.9894834
        ]
      },
      "id": "node/11296154527"
    },
    {
      "type": "Feature",
      "properties": {
        "@id": "node/11296161404",
        "amenity": "bar",
        "name": "Mülksüzler"
      },
      "geometry": {
        "type": "Point",
        "coordinates": [
          29.0271117,
          40.9899167
        ]
      },
      "id": "node/11296161404"
    },
    {
      "type": "Feature",
      "properties": {
        "@id": "node/11296171625",
        "amenity": "bar",
        "name": "Gerando"
      },
      "geometry": {
        "type": "Point",
        "coordinates": [
          29.0272084,
          40.9901682
        ]
      },
      "id": "node/11296171625"
    },
    {
      "type": "Feature",
      "properties": {
        "@id": "node/11296172853",
        "amenity": "bar",
        "name": "Geyik"
      },
      "geometry": {
        "type": "Point",
        "coordinates": [
          29.0271045,
          40.9898691
        ]
      },
      "id": "node/11296172853"
    },
    {
      "type": "Feature",
      "properties": {
        "@id": "node/11296173637",
        "amenity": "bar",
        "name": "Rebel"
      },
      "geometry": {
        "type": "Point",
        "coordinates": [
          29.0271964,
          40.9901018
        ]
      },
      "id": "node/11296173637"
    },
    {
      "type": "Feature",
      "properties": {
        "@id": "node/11310639822",
        "addr:city": "İstanbul",
        "addr:district": "Üsküdar",
        "addr:neighbourhood": "Ünalan Mahallesi",
        "addr:postcode": "34700",
        "addr:street": "Libadiye Caddesi",
        "amenity": "bar",
        "name": "Hayal Kahvesi",
        "website": "https://www.hayalkahvesi.com.tr/iyi-muzik/emaar-28"
      },
      "geometry": {
        "type": "Point",
        "coordinates": [
          29.0706373,
          41.0040082
        ]
      },
      "id": "node/11310639822"
    },
    {
      "type": "Feature",
      "properties": {
        "@id": "node/11370528245",
        "addr:city": "İstanbul",
        "addr:district": "Beşiktaş",
        "addr:housenumber": "2",
        "addr:neighbourhood": "Levazım Mahallesi",
        "addr:postcode": "34340",
        "addr:street": "Koru Sokağı",
        "amenity": "bar",
        "min_age": "18",
        "name": "Walkers Bar"
      },
      "geometry": {
        "type": "Point",
        "coordinates": [
          29.0183097,
          41.0658946
        ]
      },
      "id": "node/11370528245"
    },
    {
      "type": "Feature",
      "properties": {
        "@id": "node/11385332654",
        "amenity": "bar",
        "check_date": "2023-11-30",
        "name": "Reset"
      },
      "geometry": {
        "type": "Point",
        "coordinates": [
          29.0236553,
          40.988204
        ]
      },
      "id": "node/11385332654"
    },
    {
      "type": "Feature",
      "properties": {
        "@id": "node/11806554572",
        "amenity": "bar",
        "internet_access": "wlan",
        "name:en": "Marlen Bar"
      },
      "geometry": {
        "type": "Point",
        "coordinates": [
          28.9810947,
          41.0362492
        ]
      },
      "id": "node/11806554572"
    },
    {
      "type": "Feature",
      "properties": {
        "@id": "node/11813888208",
        "addr:city": "İstanbul",
        "addr:district": "Beyoğlu",
        "addr:housenumber": "77",
        "addr:neighbourhood": "Asmalı Mescit Mahallesi",
        "addr:postcode": "34430",
        "addr:street": "Meşrutiyet Caddesi",
        "amenity": "bar",
        "contact:facebook": "https://www.instagram.com/perayetmisyedi/",
        "min_age": "18",
        "mobile": "+90 534 576 99 94",
        "name": "Pera 77",
        "opening_hours": "Mo-Su 07:00-02:00",
        "website": "https://pera77.com.tr"
      },
      "geometry": {
        "type": "Point",
        "coordinates": [
          28.9739937,
          41.0311149
        ]
      },
      "id": "node/11813888208"
    },
    {
      "type": "Feature",
      "properties": {
        "@id": "node/11825343469",
        "amenity": "bar",
        "name:en": "Jigger roof kitchen &bar",
        "name:ru": "Бар на крыше"
      },
      "geometry": {
        "type": "Point",
        "coordinates": [
          29.0412149,
          40.9776045
        ]
      },
      "id": "node/11825343469"
    },
    {
      "type": "Feature",
      "properties": {
        "@id": "node/11879282469",
        "amenity": "bar",
        "name:en": "Frankie",
        "phone": "+90 212 401 05 57",
        "website": "https://www.frankieistanbul.com/"
      },
      "geometry": {
        "type": "Point",
        "coordinates": [
          28.9877043,
          41.0284177
        ]
      },
      "id": "node/11879282469"
    },
    {
      "type": "Feature",
      "properties": {
        "@id": "node/11970564863",
        "addr:city": "İstanbul",
        "addr:district": "Kadıköy",
        "addr:housenumber": "350",
        "addr:neighbourhood": "Caddebostan Mahallesi",
        "addr:postcode": "34728",
        "addr:street": "Bağdat Caddesi",
        "amenity": "bar",
        "name": "Troyka Cocktail Bar",
        "website": "https://troykabar.com/"
      },
      "geometry": {
        "type": "Point",
        "coordinates": [
          29.0732107,
          40.9642616
        ]
      },
      "id": "node/11970564863"
    },
    {
      "type": "Feature",
      "properties": {
        "@id": "node/12106435967",
        "amenity": "bar",
        "check_date": "2024-08-10",
        "name": "Street pub"
      },
      "geometry": {
        "type": "Point",
        "coordinates": [
          28.9817064,
          41.0362023
        ]
      },
      "id": "node/12106435967"
    },
    {
      "type": "Feature",
      "properties": {
        "@id": "node/12161419238",
        "addr:city": "Istanbul",
        "addr:district": "Sarıyer",
        "addr:neighbourhood": "Maslak",
        "addr:postcode": "34398",
        "addr:street": "Ağaoğlu 1453 Sitesi",
        "amenity": "bar",
        "name": "Liz Maslak",
        "opening_hours": "Tu-Su 20:00-02:00"
      },
      "geometry": {
        "type": "Point",
        "coordinates": [
          29.0094321,
          41.1161327
        ]
      },
      "id": "node/12161419238"
    },
    {
      "type": "Feature",
      "properties": {
        "@id": "node/12175192852",
        "addr:city": "Istanbul",
        "addr:district": "Sarıyer",
        "addr:neighbourhood": "Maslak",
        "addr:postcode": "34398",
        "addr:street": "Ağaoğlu 1453 Sitesi",
        "amenity": "bar",
        "name": "Neyla Maslak",
        "opening_hours": "Tu-Su 20:00-01:00"
      },
      "geometry": {
        "type": "Point",
        "coordinates": [
          29.0093828,
          41.1161773
        ]
      },
      "id": "node/12175192852"
    },
    {
      "type": "Feature",
      "properties": {
        "@id": "node/12356422717",
        "addr:neighbourhood": "Cebel Topu Sokak",
        "amenity": "bar",
        "name": "Altın Saatler Harbiye"
      },
      "geometry": {
        "type": "Point",
        "coordinates": [
          28.9855867,
          41.0456908
        ]
      },
      "id": "node/12356422717"
    },
    {
      "type": "Feature",
      "properties": {
        "@id": "node/12378852002",
        "amenity": "bar",
        "name": "Retro Bar"
      },
      "geometry": {
        "type": "Point",
        "coordinates": [
          28.9749451,
          41.0296951
        ]
      },
      "id": "node/12378852002"
    },
    {
      "type": "Feature",
      "properties": {
        "@id": "node/12379118301",
        "amenity": "bar",
        "name": "Pera Temple Pub"
      },
      "geometry": {
        "type": "Point",
        "coordinates": [
          28.9743956,
          41.029486
        ]
      },
      "id": "node/12379118301"
    },
    {
      "type": "Feature",
      "properties": {
        "@id": "node/12383066402",
        "amenity": "bar",
        "name": "Bremen Bar"
      },
      "geometry": {
        "type": "Point",
        "coordinates": [
          28.981388,
          41.0361544
        ]
      },
      "id": "node/12383066402"
    },
    {
      "type": "Feature",
      "properties": {
        "@id": "node/12386883601",
        "amenity": "bar",
        "check_date": "2025-04-04",
        "name": "Dublin Irish Pub",
        "theme": "irish"
      },
      "geometry": {
        "type": "Point",
        "coordinates": [
          28.9749836,
          41.0296722
        ]
      },
      "id": "node/12386883601"
    },
    {
      "type": "Feature",
      "properties": {
        "@id": "node/12510989013",
        "amenity": "bar",
        "check_date": "2025-01-17",
        "name": "Fevk Hookah Lounge"
      },
      "geometry": {
        "type": "Point",
        "coordinates": [
          28.9841949,
          41.0405242
        ]
      },
      "id": "node/12510989013"
    },
    {
      "type": "Feature",
      "properties": {
        "@id": "node/12510989034",
        "amenity": "bar",
        "check_date": "2025-01-17",
        "name": "Eat'stanbul"
      },
      "geometry": {
        "type": "Point",
        "coordinates": [
          28.9840911,
          41.0396952
        ]
      },
      "id": "node/12510989034"
    },
    {
      "type": "Feature",
      "properties": {
        "@id": "node/12512834711",
        "amenity": "bar",
        "check_date": "2025-01-18",
        "contact:instagram": "clubiq",
        "level": "0",
        "name": "Club IQ",
        "phone": "+90 533 090 67 68"
      },
      "geometry": {
        "type": "Point",
        "coordinates": [
          28.9810583,
          41.0347255
        ]
      },
      "id": "node/12512834711"
    },
    {
      "type": "Feature",
      "properties": {
        "@id": "node/12512834713",
        "amenity": "bar",
        "check_date": "2025-01-18",
        "name": "Andrea Karaköy"
      },
      "geometry": {
        "type": "Point",
        "coordinates": [
          28.9788772,
          41.024635
        ]
      },
      "id": "node/12512834713"
    },
    {
      "type": "Feature",
      "properties": {
        "@id": "node/12512834725",
        "amenity": "bar",
        "check_date": "2025-01-18",
        "name": "Coco Lounge"
      },
      "geometry": {
        "type": "Point",
        "coordinates": [
          28.9769569,
          41.0231895
        ]
      },
      "id": "node/12512834725"
    },
    {
      "type": "Feature",
      "properties": {
        "@id": "node/12512834754",
        "amenity": "bar",
        "check_date": "2025-01-18",
        "name": "Cheers"
      },
      "geometry": {
        "type": "Point",
        "coordinates": [
          28.9784106,
          41.0242893
        ]
      },
      "id": "node/12512834754"
    },
    {
      "type": "Feature",
      "properties": {
        "@id": "node/12571656401",
        "amenity": "bar",
        "name": "Popstel liquor"
      },
      "geometry": {
        "type": "Point",
        "coordinates": [
          28.9787414,
          41.0316581
        ]
      },
      "id": "node/12571656401"
    },
    {
      "type": "Feature",
      "properties": {
        "@id": "node/12726317161",
        "addr:housenumber": "17",
        "addr:street": "Hocazade Sokağı",
        "amenity": "bar",
        "check_date": "2025-04-03",
        "name": "jasmin highheels"
      },
      "geometry": {
        "type": "Point",
        "coordinates": [
          28.9837479,
          41.033641
        ]
      },
      "id": "node/12726317161"
    },
    {
      "type": "Feature",
      "properties": {
        "@id": "node/12787281017",
        "addr:city": "İstanbul",
        "addr:district": "Şişli",
        "addr:housenumber": "45",
        "addr:neighbourhood": "Teşvikiye",
        "addr:postcode": "34363",
        "addr:street": "Poyracık Sokağı",
        "amenity": "bar",
        "brewery": "various;yes",
        "contact:facebook": "https://www.facebook.com/profile.php?id=61573732910772",
        "min_age": "18",
        "mobile": "+905322978072",
        "name": "Rabbit.cocktailbar",
        "name:tr": "Rabbit",
        "opening_hours": "Mo-Sa 17:00-02:00",
        "outdoor_seating": "yes",
        "payment:credit_cards": "yes",
        "payment:debit_cards": "yes",
        "payment:mastercard": "yes",
        "payment:nfc_mobile_payments": "yes",
        "payment:visa": "yes"
      },
      "geometry": {
        "type": "Point",
        "coordinates": [
          28.9951257,
          41.0527101
        ]
      },
      "id": "node/12787281017"
    },
    {
      "type": "Feature",
      "properties": {
        "@id": "node/13018684302",
        "amenity": "bar",
        "level": "2",
        "name": "Ex bar"
      },
      "geometry": {
        "type": "Point",
        "coordinates": [
          28.9801786,
          41.0339511
        ]
      },
      "id": "node/13018684302"
    },
    {
      "type": "Feature",
      "properties": {
        "@id": "node/13202550516",
        "amenity": "bar",
        "check_date": "2025-10-08",
        "level": "1",
        "name": "King"
      },
      "geometry": {
        "type": "Point",
        "coordinates": [
          28.7362971,
          41.2668499
        ]
      },
      "id": "node/13202550516"
    },
    {
      "type": "Feature",
      "properties": {
        "@id": "node/13272904027",
        "addr:city": "İstanbul",
        "addr:district": "Şişli",
        "addr:housenumber": "30",
        "addr:neighbourhood": "Harbiye Mahallesi",
        "addr:postcode": "34367",
        "addr:street": "Cumhuriyet Caddesi",
        "amenity": "bar",
        "contact:facebook": "https://www.facebook.com/beerlounge.pub/",
        "description": "Canlı müzik her hafta Çarşamba, Cuma ve Cumartesi günleri 22:00- 03:00 saatleri arasından olan bar.",
        "email": "beerlounge@gmail.com",
        "image": "https://ibb.co/nsnVZSsK",
        "name": "Beer Lounge Pub Şişli",
        "opening_hours": "18:00-05:00",
        "outdoor_seating": "yes",
        "website": "https://www.instagram.com/beerlounge.pub"
      },
      "geometry": {
        "type": "Point",
        "coordinates": [
          28.9872605,
          41.0414346
        ]
      },
      "id": "node/13272904027"
    }
  ]
}